"STATION","DATE","REPORT_TYPE","SOURCE","AWND","BackupDirection","BackupDistance","BackupDistanceUnit","BackupElements","BackupElevation","BackupElevationUnit","BackupEquipment","BackupLatitude","BackupLongitude","BackupName","CDSD","CLDD","DSNW","DYHF","DYTS","DailyAverageDewPointTemperature","DailyAverageDryBulbTemperature","DailyAverageRelativeHumidity","DailyAverageSeaLevelPressure","DailyAverageStationPressure","DailyAverageWetBulbTemperature","DailyAverageWindSpeed","DailyCoolingDegreeDays","DailyDepartureFromNormalAverageTemperature","DailyHeatingDegreeDays","DailyMaximumDryBulbTemperature","DailyMinimumDryBulbTemperature","DailyPeakWindDirection","DailyPeakWindSpeed","DailyPrecipitation","DailySnowDepth","DailySnowfall","DailySustainedWindDirection","DailySustainedWindSpeed","DailyWeather","HDSD","HTDD","HourlyAltimeterSetting","HourlyDewPointTemperature","HourlyDryBulbTemperature","HourlyPrecipitation","HourlyPresentWeatherType","HourlyPressureChange","HourlyPressureTendency","HourlyRelativeHumidity","HourlySeaLevelPressure","HourlySkyConditions","HourlyStationPressure","HourlyVisibility","HourlyWetBulbTemperature","HourlyWindDirection","HourlyWindGustSpeed","HourlyWindSpeed","MonthlyAverageRH","MonthlyDaysWithGT001Precip","MonthlyDaysWithGT010Precip","MonthlyDaysWithGT32Temp","MonthlyDaysWithGT90Temp","MonthlyDaysWithLT0Temp","MonthlyDaysWithLT32Temp","MonthlyDepartureFromNormalAverageTemperature","MonthlyDepartureFromNormalCoolingDegreeDays","MonthlyDepartureFromNormalHeatingDegreeDays","MonthlyDepartureFromNormalMaximumTemperature","MonthlyDepartureFromNormalMinimumTemperature","MonthlyDepartureFromNormalPrecipitation","MonthlyDewpointTemperature","MonthlyGreatestPrecip","MonthlyGreatestPrecipDate","MonthlyGreatestSnowDepth","MonthlyGreatestSnowDepthDate","MonthlyGreatestSnowfall","MonthlyGreatestSnowfallDate","MonthlyMaxSeaLevelPressureValue","MonthlyMaxSeaLevelPressureValueDate","MonthlyMaxSeaLevelPressureValueTime","MonthlyMaximumTemperature","MonthlyMeanTemperature","MonthlyMinSeaLevelPressureValue","MonthlyMinSeaLevelPressureValueDate","MonthlyMinSeaLevelPressureValueTime","MonthlyMinimumTemperature","MonthlySeaLevelPressure","MonthlyStationPressure","MonthlyTotalLiquidPrecipitation","MonthlyTotalSnowfall","MonthlyWetBulb","NormalsCoolingDegreeDay","NormalsHeatingDegreeDay","REM","REPORT_TYPE","SOURCE","ShortDurationEndDate005","ShortDurationEndDate010","ShortDurationEndDate015","ShortDurationEndDate020","ShortDurationEndDate030","ShortDurationEndDate045","ShortDurationEndDate060","ShortDurationEndDate080","ShortDurationEndDate100","ShortDurationEndDate120","ShortDurationEndDate150","ShortDurationEndDate180","ShortDurationPrecipitationValue005","ShortDurationPrecipitationValue010","ShortDurationPrecipitationValue015","ShortDurationPrecipitationValue020","ShortDurationPrecipitationValue030","ShortDurationPrecipitationValue045","ShortDurationPrecipitationValue060","ShortDurationPrecipitationValue080","ShortDurationPrecipitationValue100","ShortDurationPrecipitationValue120","ShortDurationPrecipitationValue150","ShortDurationPrecipitationValue180","Sunrise","Sunset","WindEquipmentChangeDate"
"72509014739","2020-05-10T00:54:00","FM-15","7",,"ESE","2.6","mi","SNOW","20",,"SNOWBOARD, SNOW RULER","42.3517","-70.9606","MWRA DEER ISLAND TREATMENT PLANT",,,,,,,,,,,,,,,,,,,,,,,,,,,,"29.91","21","37","0.00",,"-0.04","3","52","29.91","FEW:02 70","29.88","10.00","31","260","24","18",,,,,,,,,,,,,,,,,,,,,,,,,,,,,,,,,,,,,"MET12205/10/20 00:54:02 METAR KBOS 100554Z 26016G21KT 10SM FEW070 03/M06 A2991 RMK AO2 SLP127 T00281061 10044 20022 53014 $ (WL)","FM-15","7",,,,,,,,,,,,,,,,,,,,,,,,,,,"2006-10-05"
"72509014739","2020-05-10T01:00:00","FM-12","4",,"ESE","2.6","mi","SNOW","20",,"SNOWBOARD, SNOW RULER","42.3517","-70.9606","MWRA DEER ISLAND TREATMENT PLANT",,,,,,,,,,,,,,,,,,,,,,,,,,,,,"21","37",,,"-0.04","3","52","29.91","74","29.89","9.94","31","260",,"18",,,,,,,,,,,,,,,,,,,,,,,,,,,,,,,,,,,,,"SYN08672509 32866 22616 10028 21061 30121 40127 53014 90554 333 10056 20022 91021 555 91006=","FM-12","4",,,,,,,,,,,,,,,,,,,,,,,,,,,"2006-10-05"
"72509014739","2020-05-10T01:54:00","FM-15","7",,"ESE","2.6","mi","SNOW","20",,"SNOWBOARD, SNOW RULER","42.3517","-70.9606","MWRA DEER ISLAND TREATMENT PLANT",,,,,,,,,,,,,,,,,,,,,,,,,,,,"29.92","21","36","0.00",,,,"55","29.92","FEW:02 250","29.89","10.00","31","240",,"13",,,,,,,,,,,,,,,,,,,,,,,,,,,,,,,,,,,,,"MET10105/10/20 01:54:02 METAR KBOS 100654Z 24011KT 10SM FEW250 02/M06 A2992 RMK AO2 SLP131 T00221061 $ (WL)","FM-15","7",,,,,,,,,,,,,,,,,,,,,,,,,,,"2006-10-05"
"72509014739","2020-05-10T02:54:00","FM-15","7",,"ESE","2.6","mi","SNOW","20",,"SNOWBOARD, SNOW RULER","42.3517","-70.9606","MWRA DEER ISLAND TREATMENT PLANT",,,,,,,,,,,,,,,,,,,,,,,,,,,,"29.93","21","36","0.00",,,,"55","29.92","SCT:04 240","29.90","10.00","31","240",,"14",,,,,,,,,,,,,,,,,,,,,,,,,,,,,,,,,,,,,"MET10105/10/20 02:54:02 METAR KBOS 100754Z 24012KT 10SM SCT240 02/M06 A2993 RMK AO2 SLP133 T00221061 $ (WL)","FM-15","7",,,,,,,,,,,,,,,,,,,,,,,,,,,"2006-10-05"
"72509014739","2020-05-10T03:54:00","FM-15","7",,"ESE","2.6","mi","SNOW","20",,"SNOWBOARD, SNOW RULER","42.3517","-70.9606","MWRA DEER ISLAND TREATMENT PLANT",,,,,,,,,,,,,,,,,,,,,,,,,,,,"29.93","22","34","0.00",,"-0.02","1","61","29.93","FEW:02 250","29.90","10.00","30","220",,"11",,,,,,,,,,,,,,,,,,,,,,,,,,,,,,,,,,,,,"MET10705/10/20 03:54:02 METAR KBOS 100854Z 22010KT 10SM FEW250 01/M06 A2993 RMK AO2 SLP136 T00111056 51008 $ (WL)","FM-15","7",,,,,,,,,,,,,,,,,,,,,,,,,,,"2006-10-05"
"72509014739","2020-05-10T04:00:00","FM-12","4",,"ESE","2.6","mi","SNOW","20",,"SNOWBOARD, SNOW RULER","42.3517","-70.9606","MWRA DEER ISLAND TREATMENT PLANT",,,,,,,,,,,,,,,,,,,,,,,,,,,,,"22","34",,,"-0.02","1","61","29.93",,"29.91","9.94","30","220",,"11",,,,,,,,,,,,,,,,,,,,,,,,,,,,,,,,,,,,,"SYN06472509 32966 22210 10011 21056 30128 40136 51008 90854 555 91009=","FM-12","4",,,,,,,,,,,,,,,,,,,,,,,,,,,"2006-10-05"
"72509014739","2020-05-10T04:54:00","FM-15","7",,"ESE","2.6","mi","SNOW","20",,"SNOWBOARD, SNOW RULER","42.3517","-70.9606","MWRA DEER ISLAND TREATMENT PLANT",,,,,,,,,,,,,,,,,,,,,,,,,,,,"29.94","22","34","0.00",,,,"61","29.94","FEW:02 150 SCT:04 250","29.91","10.00","30","220",,"11",,,,,,,,,,,,,,,,,,,,,,,,,,,,,,,,,,,,,"MET10805/10/20 04:54:02 METAR KBOS 100954Z 22010KT 10SM FEW150 SCT250 01/M06 A2994 RMK AO2 SLP138 T00111056 $ (WL)","FM-15","7",,,,,,,,,,,,,,,,,,,,,,,,,,,"2006-10-05"
"72509014739","2020-05-10T05:54:00","FM-15","7",,"ESE","2.6","mi","SNOW","20",,"SNOWBOARD, SNOW RULER","42.3517","-70.9606","MWRA DEER ISLAND TREATMENT PLANT",,,,,,,,,,,,,,,,,,,,,,,,,,,,"29.95","24","36","0.00",,,,"62","29.95","FEW:02 60 FEW:02 150","29.92","10.00","32","220",,"15",,,,,,,,,,,,,,,,,,,,,,,,,,,,,,,,,,,,,"MET10305/10/20 05:54:02 METAR KBOS 101054Z 22013KT 10SM FEW060 FEW150 02/M04 A2995 RMK AO2 SLP142 T00221044 $","FM-15","7",,,,,,,,,,,,,,,,,,,,,,,,,,,"2006-10-05"
"72509014739","2020-05-10T06:54:00","FM-15","7",,"ESE","2.6","mi","SNOW","20",,"SNOWBOARD, SNOW RULER","42.3517","-70.9606","MWRA DEER ISLAND TREATMENT PLANT",,,,,,,,,,,,,,,,,,,,,,,,,,,,"29.95","25","40","0.00",,"-0.02","1","55","29.95","FEW:02 60 FEW:02 150","29.92","10.00","34","230",,"17",,,,,,,,,,,,,,,,,,,,,,,,,,,,,,,,,,,,,"MET12605/10/20 06:54:02 METAR KBOS 101154Z 23015KT 10SM FEW060 FEW150 04/M04 A2995 RMK AO2 SLP142 T00441039 10044 20011 51007 $ (FA)","FM-15","7",,,,,,,,,,,,,,,,,,,,,,,,,,,"2006-10-05"
"72509014739","2020-05-10T07:00:00","FM-12","4",,"ESE","2.6","mi","SNOW","20",,"SNOWBOARD, SNOW RULER","42.3517","-70.9606","MWRA DEER ISLAND TREATMENT PLANT",,,,,,,,,,,,,,,,,,,,,,,,,,,,,"25","40",,,"-0.02","1","55","29.95","57","29.93","9.94","34","230",,"17",,,,,,,,,,,,,,,,,,,,,,,,,,,,,,,,,,,,,"SYN08072509 32766 22315 10044 21039 30135 40142 51007 91154 333 10067 20011 555 91012=","FM-12","4",,,,,,,,,,,,,,,,,,,,,,,,,,,"2006-10-05"
"72509014739","2020-05-10T07:54:00","FM-15","7",,"ESE","2.6","mi","SNOW","20",,"SNOWBOARD, SNOW RULER","42.3517","-70.9606","MWRA DEER ISLAND TREATMENT PLANT",,,,,,,,,,,,,,,,,,,,,,,,,,,,"29.95","25","43","0.00",,,,"49","29.95","SCT:04 47 BKN:07 55","29.92","10.00","36","250","21","9",,,,,,,,,,,,,,,,,,,,,,,,,,,,,,,,,,,,,"MET11105/10/20 07:54:02 METAR KBOS 101254Z 25008G18KT 10SM SCT047 BKN055 06/M04 A2995 RMK AO2 SLP142 T00611039 $ (FA)","FM-15","7",,,,,,,,,,,,,,,,,,,,,,,,,,,"2006-10-05"
"72509014739","2020-05-10T08:54:00","FM-15","7",,"ESE","2.6","mi","SNOW","20",,"SNOWBOARD, SNOW RULER","42.3517","-70.9606","MWRA DEER ISLAND TREATMENT PLANT",,,,,,,,,,,,,,,,,,,,,,,,,,,,"29.94","24","47","0.00",,,,"41","29.94","FEW:02 45 SCT:04 55","29.91","10.00","38","270","23","16",,,,,,,,,,,,,,,,,,,,,,,,,,,,,,,,,,,,,"MET11105/10/20 08:54:02 METAR KBOS 101354Z 27014G20KT 10SM FEW045 SCT055 08/M04 A2994 RMK AO2 SLP138 T00831044 $ (FA)","FM-15","7",,,,,,,,,,,,,,,,,,,,,,,,,,,"2006-10-05"
"72509014739","2020-05-10T09:54:00","FM-15","7",,"ESE","2.6","mi","SNOW","20",,"SNOWBOARD, SNOW RULER","42.3517","-70.9606","MWRA DEER ISLAND TREATMENT PLANT",,,,,,,,,,,,,,,,,,,,,,,,,,,,"29.94","24","49","0.00",,"+0.01","8","38","29.93","FEW:02 45 SCT:04 60","29.91","10.00","39","270","25","18",,,,,,,,,,,,,,,,,,,,,,,,,,,,,,,,,,,,,"MET13505/10/20 09:54:02 METAR KBOS 101454Z 27016G22KT 10SM FEW045 SCT060 09/M04 A2994 RMK AO2 PK WND 25030/1440 SLP137 T00941044 58005 $ (FA)","FM-15","7",,,,,,,,,,,,,,,,,,,,,,,,,,,"2006-10-05"
"72509014739","2020-05-10T10:00:00","FM-12","4",,"ESE","2.6","mi","SNOW","20",,"SNOWBOARD, SNOW RULER","42.3517","-70.9606","MWRA DEER ISLAND TREATMENT PLANT",,,,,,,,,,,,,,,,,,,,,,,,,,,,,"24","49",,,"+0.01","8","38","29.93","41","29.92","9.94","39","270",,"18",,,,,,,,,,,,,,,,,,,,,,,,,,,,,,,,,,,,,"SYN07472509 32666 42716 10094 21044 30131 40137 58005 91454 333 91022 555 91015=","FM-12","4",,,,,,,,,,,,,,,,,,,,,,,,,,,"2006-10-05"
"72509014739","2020-05-10T10:54:00","FM-15","7",,"ESE","2.6","mi","SNOW","20",,"SNOWBOARD, SNOW RULER","42.3517","-70.9606","MWRA DEER ISLAND TREATMENT PLANT",,,,,,,,,,,,,,,,,,,,,,,,,,,,"29.94","25","50","0.00",,,,"38","29.93","BKN:07 60","29.91","10.00","40","250","32","23",,,,,,,,,,,,,,,,,,,,,,,,,,,,,,,,,,,,,"MET12205/10/20 10:54:02 METAR KBOS 101554Z 25020G28KT 10SM BKN060 10/M04 A2994 RMK AO2 PK WND 25028/1554 SLP136 T01001039 $ (FA)","FM-15","7",,,,,,,,,,,,,,,,,,,,,,,,,,,"2006-10-05"
"72509014739","2020-05-10T11:54:00","FM-15","7",,"ESE","2.6","mi","SNOW","20",,"SNOWBOARD, SNOW RULER","42.3517","-70.9606","MWRA DEER ISLAND TREATMENT PLANT",,,,,,,,,,,,,,,,,,,,,,,,,,,,"29.92","25","52","0.00",,,,"35","29.92","BKN:07 65","29.89","10.00","41","260","37","25",,,,,,,,,,,,,,,,,,,,,,,,,,,,,,,,,,,,,"MET12205/10/20 11:54:02 METAR KBOS 101654Z 26022G32KT 10SM BKN065 11/M04 A2992 RMK AO2 PK WND 28032/1645 SLP132 T01111039 $ (FA)","FM-15","7",,,,,,,,,,,,,,,,,,,,,,,,,,,"2006-10-05"
"72509014739","2020-05-10T12:54:00","FM-15","7",,"ESE","2.6","mi","SNOW","20",,"SNOWBOARD, SNOW RULER","42.3517","-70.9606","MWRA DEER ISLAND TREATMENT PLANT",,,,,,,,,,,,,,,,,,,,,,,,,,,,"29.91","25","55","0.00",,"+0.03","8","31","29.90","BKN:07 65","29.88","10.00","42","270","31","21",,,,,,,,,,,,,,,,,,,,,,,,,,,,,,,,,,,,,"MET14005/10/20 12:54:02 METAR KBOS 101754Z 27018G27KT 10SM BKN065 13/M04 A2991 RMK AO2 PK WND 28029/1659 SLP126 T01281039 10128 20044 58011 $ (FA)","FM-15","7",,,,,,,,,,,,,,,,,,,,,,,,,,,"2006-10-05"
"72509014739","2020-05-10T13:00:00","FM-12","4",,"ESE","2.6","mi","SNOW","20",,"SNOWBOARD, SNOW RULER","42.3517","-70.9606","MWRA DEER ISLAND TREATMENT PLANT",,,,,,,,,,,,,,,,,,,,,,,,,,,,,"25","55",,,"+0.03","8","31","29.90","57","29.89","9.94","42","270",,"21",,,,,,,,,,,,,,,,,,,,,,,,,,,,,,,,,,,,,"SYN08672509 32766 62718 10128 21039 30121 40126 58011 91754 333 10128 20039 91027 555 91018=","FM-12","4",,,,,,,,,,,,,,,,,,,,,,,,,,,"2006-10-05"
"72509014739","2020-05-10T13:54:00","FM-15","7",,"ESE","2.6","mi","SNOW","20",,"SNOWBOARD, SNOW RULER","42.3517","-70.9606","MWRA DEER ISLAND TREATMENT PLANT",,,,,,,,,,,,,,,,,,,,,,,,,,,,"29.89","26","57","0.00",,,,"30","29.88","SCT:04 75","29.86","10.00","44","280","36","15",,,,,,,,,,,,,,,,,,,,,,,,,,,,,,,,,,,,,"MET12305/10/20 13:54:02 METAR KBOS 101854Z 28013G31KT 10SM SCT075 14/M03 A2989 RMK AO2 PK WND 28031/1838 SLP119 T01391033 $ (ETM)","FM-15","7",,,,,,,,,,,,,,,,,,,,,,,,,,,"2006-10-05"
"72509014739","2020-05-10T14:54:00","FM-15","7",,"ESE","2.6","mi","SNOW","20",,"SNOWBOARD, SNOW RULER","42.3517","-70.9606","MWRA DEER ISLAND TREATMENT PLANT",,,,,,,,,,,,,,,,,,,,,,,,,,,,"29.86","24","58","0.00",,,,"27","29.86","SCT:04 80","29.83","10.00","44","260","29","17",,,,,,,,,,,,,,,,,,,,,,,,,,,,,,,,,,,,,"MET12305/10/20 14:54:02 METAR KBOS 101954Z 26015G25KT 10SM SCT080 14/M04 A2986 RMK AO2 PK WND 26030/1943 SLP112 T01441044 $ (ETM)","FM-15","7",,,,,,,,,,,,,,,,,,,,,,,,,,,"2006-10-05"
"72509014739","2020-05-10T15:54:00","FM-15","7",,"ESE","2.6","mi","SNOW","20",,"SNOWBOARD, SNOW RULER","42.3517","-70.9606","MWRA DEER ISLAND TREATMENT PLANT",,,,,,,,,,,,,,,,,,,,,,,,,,,,"29.85","24","60","0.00",,"+0.05","6","25","29.85","SCT:04 85","29.82","10.00","45","250","34","22",,,,,,,,,,,,,,,,,,,,,,,,,,,,,,,,,,,,,"MET12905/10/20 15:54:02 METAR KBOS 102054Z 25019G30KT 10SM SCT085 16/M04 A2985 RMK AO2 PK WND 26031/2026 SLP109 T01561044 56018 $ (ETM)","FM-15","7",,,,,,,,,,,,,,,,,,,,,,,,,,,"2006-10-05"
"72509014739","2020-05-10T16:00:00","FM-12","4",,"ESE","2.6","mi","SNOW","20",,"SNOWBOARD, SNOW RULER","42.3517","-70.9606","MWRA DEER ISLAND TREATMENT PLANT",,,,,,,,,,,,,,,,,,,,,,,,,,,,,"24","60",,,"+0.05","6","25","29.85",,"29.83","9.94","45","250",,"22",,,,,,,,,,,,,,,,,,,,,,,,,,,,,,,,,,,,,"SYN07472509 32966 42519 10156 21044 30101 40109 56018 92054 333 91030 555 91021=","FM-12","4",,,,,,,,,,,,,,,,,,,,,,,,,,,"2006-10-05"
"72509014739","2020-05-10T16:54:00","FM-15","7",,"ESE","2.6","mi","SNOW","20",,"SNOWBOARD, SNOW RULER","42.3517","-70.9606","MWRA DEER ISLAND TREATMENT PLANT",,,,,,,,,,,,,,,,,,,,,,,,,,,,"29.87","26","59","0.00",,,,"28","29.86","SCT:04 85","29.84","10.00","45","270","28","16",,,,,,,,,,,,,,,,,,,,,,,,,,,,,,,,,,,,,"MET12305/10/20 16:54:02 METAR KBOS 102154Z 27014G24KT 10SM SCT085 15/M03 A2987 RMK AO2 PK WND 26030/2119 SLP113 T01501033 $ (ETM)","FM-15","7",,,,,,,,,,,,,,,,,,,,,,,,,,,"2006-10-05"
"72509014739","2020-05-10T17:54:00","FM-15","7",,"ESE","2.6","mi","SNOW","20",,"SNOWBOARD, SNOW RULER","42.3517","-70.9606","MWRA DEER ISLAND TREATMENT PLANT",,,,,,,,,,,,,,,,,,,,,,,,,,,,"29.87","27","58","0.00",,,,"31","29.87","SCT:04 80","29.84","10.00","45","250","33","24",,,,,,,,,,,,,,,,,,,,,,,,,,,,,,,,,,,,,"MET12305/10/20 17:54:02 METAR KBOS 102254Z 25021G29KT 10SM SCT080 14/M03 A2987 RMK AO2 PK WND 28029/2249 SLP114 T01441028 $ (ETM)","FM-15","7",,,,,,,,,,,,,,,,,,,,,,,,,,,"2006-10-05"
"72509014739","2020-05-10T18:54:00","FM-15","7",,"ESE","2.6","mi","SNOW","20",,"SNOWBOARD, SNOW RULER","42.3517","-70.9606","MWRA DEER ISLAND TREATMENT PLANT",,,,,,,,,,,,,,,,,,,,,,,,,,,,"29.88","28","56","0.00",,"-0.03","1","34","29.88","SCT:04 100 SCT:04 250","29.85","10.00","44","270",,"11",,,,,,,,,,,,,,,,,,,,,,,,,,,,,,,,,,,,,"MET14505/10/20 18:54:02 METAR KBOS 102354Z 27010KT 10SM SCT100 SCT250 13/M02 A2988 RMK AO2 PK WND 26026/2255 SLP119 T01331022 10156 20128 51010 $ (ETM)","FM-15","7",,,,,,,,,,,,,,,,,,,,,,,,,,,"2006-10-05"
"72509014739","2020-05-10T19:00:00","FM-12","4",,"ESE","2.6","mi","SNOW","20",,"SNOWBOARD, SNOW RULER","42.3517","-70.9606","MWRA DEER ISLAND TREATMENT PLANT",,,,,,,,,,,,,,,,,,,,,,,,,,,,,"28","56",,,"-0.03","1","34","29.88",,"29.86","9.94","44","270",,"11",,,,,,,,,,,,,,,,,,,,,,,,,,,,,,,,,,,,,"SYN08072509 32966 42710 10133 21022 30111 40119 51010 92354 333 10156 20011 555 91100=","FM-12","4",,,,,,,,,,,,,,,,,,,,,,,,,,,"2006-10-05"
"72509014739","2020-05-10T19:54:00","FM-15","7",,"ESE","2.6","mi","SNOW","20",,"SNOWBOARD, SNOW RULER","42.3517","-70.9606","MWRA DEER ISLAND TREATMENT PLANT",,,,,,,,,,,,,,,,,,,,,,,,,,,,"29.89","29","55","0.00",,,,"37","29.89","FEW:02 90 FEW:02 220","29.86","10.00","44","260",,"7",,,,,,,,,,,,,,,,,,,,,,,,,,,,,,,,,,,,,"MET10305/10/20 19:54:01 METAR KBOS 110054Z 26006KT 10SM FEW090 FEW220 13/M02 A2989 RMK AO2 SLP122 T01281017 $","FM-15","7",,,,,,,,,,,,,,,,,,,,,,,,,,,"2006-10-05"
"72509014739","2020-05-10T20:54:00","FM-15","7",,"ESE","2.6","mi","SNOW","20",,"SNOWBOARD, SNOW RULER","42.3517","-70.9606","MWRA DEER ISLAND TREATMENT PLANT",,,,,,,,,,,,,,,,,,,,,,,,,,,,"29.91","32","53","0.00",,,,"45","29.91","FEW:02 90 FEW:02 220","29.88","10.00","44","230",,"9",,,,,,,,,,,,,,,,,,,,,,,,,,,,,,,,,,,,,"MET10205/10/20 20:54:01 METAR KBOS 110154Z 23008KT 10SM FEW090 FEW220 12/00 A2991 RMK AO2 SLP127 T01170000 $","FM-15","7",,,,,,,,,,,,,,,,,,,,,,,,,,,"2006-10-05"
"72509014739","2020-05-10T21:54:00","FM-15","7",,"ESE","2.6","mi","SNOW","20",,"SNOWBOARD, SNOW RULER","42.3517","-70.9606","MWRA DEER ISLAND TREATMENT PLANT",,,,,,,,,,,,,,,,,,,,,,,,,,,,"29.92","33","52","0.00",,"-0.04","3","49","29.92","FEW:02 70 BKN:07 140","29.89","10.00","44","270",,"7",,,,,,,,,,,,,,,,,,,,,,,,,,,,,,,,,,,,,"MET10805/10/20 21:54:01 METAR KBOS 110254Z 27006KT 10SM FEW070 BKN140 11/01 A2992 RMK AO2 SLP133 T01110006 53014 $","FM-15","7",,,,,,,,,,,,,,,,,,,,,,,,,,,"2006-10-05"
"72509014739","2020-05-10T22:00:00","FM-12","4",,"ESE","2.6","mi","SNOW","20",,"SNOWBOARD, SNOW RULER","42.3517","-70.9606","MWRA DEER ISLAND TREATMENT PLANT",,,,,,,,,,,,,,,,,,,,,,,,,,,,,"33","52",,,"-0.04","3","49","29.92","74","29.90","9.94","44","270",,"7",,,,,,,,,,,,,,,,,,,,,,,,,,,,,,,,,,,,,"SYN06472509 32866 62706 10111 20006 30124 40133 53014 90254 555 91103=","FM-12","4",,,,,,,,,,,,,,,,,,,,,,,,,,,"2006-10-05"
"72509014739","2020-05-10T22:54:00","FM-15","7",,"ESE","2.6","mi","SNOW","20",,"SNOWBOARD, SNOW RULER","42.3517","-70.9606","MWRA DEER ISLAND TREATMENT PLANT",,,,,,,,,,,,,,,,,,,,,,,,,,,,"29.93","30","52","0.00",,,,"43","29.93","BKN:07 140","29.90","10.00","43","280",,"7",,,,,,,,,,,,,,,,,,,,,,,,,,,,,,,,,,,,,"MET09605/10/20 22:54:02 METAR KBOS 110354Z 28006KT 10SM BKN140 11/M01 A2993 RMK AO2 SLP135 T01111011 $","FM-15","7",,,,,,,,,,,,,,,,,,,,,,,,,,,"2006-10-05"
"72509014739","2020-05-10T23:54:00","FM-15","7",,"ESE","2.6","mi","SNOW","20",,"SNOWBOARD, SNOW RULER","42.3517","-70.9606","MWRA DEER ISLAND TREATMENT PLANT",,,,,,,,,,,,,,,,,,,,,,,,,,,,"29.94","31","50","0.00",,,,"48","29.93","BKN:07 140","29.91","10.00","42","240",,"3",,,,,,,,,,,,,,,,,,,,,,,,,,,,,,,,,,,,,"MET10605/10/20 23:54:02 METAR KBOS 110454Z 24003KT 10SM BKN140 10/M01 A2994 RMK AO2 SLP136 T01001006 401560011 $","FM-15","7",,,,,,,,,,,,,,,,,,,,,,,,,,,"2006-10-05"
"72509014739","2020-05-10T23:59:00","SOD  ","6",,"ESE","2.6","mi","SNOW","20",,"SNOWBOARD, SNOW RULER","42.3517","-70.9606","MWRA DEER ISLAND TREATMENT PLANT",,,,,,"26","47","43","29.91","29.88","39","14.7","0","-9.1","18","60","34","280","37","0.00",,"0.0","260","29",,,,,,,,,,,,,,,,,,,,,,,,,,,,,,,,,,,,,,,,,,,,,,,,,,,,,,,,"SOD71824 HR PRECIPITATION (IN): 0.00  24 HR SNOWFALL (IN):0.0  24 HR MAX TEMP (F): 6024 HR MIN TEMP (F): 34AVERAGE STATION PRESSURE:29.875 MINIMUM SEA LEVEL PRESSURE:29.85 TIME OF OCCURRENCE:1623 PEAK WIND SPEED (MPH): 37 PEAK WIND DIR (DEG):280 PEAK WIND TIME (LST):      FASTEST 2MIN SPEED (MPH): 29FASTEST 2MIN DIR (DEG):260 FASTEST 2MIN TIME (LST):     AVERAGE WIND SPEED (MPH):14.7 24 HR AVG TEMP (F): 47DEPART FROM NORMAL: -9  HEATING DEGREE DAYS: 18 COOLING DEGREE DAYS:  0 LATEST DAY MAX TEMP (0700-1900 LST):60  LATEST NIGHT MIN TEMP(1900-0800 LST):34 HOURLY INCREMENTAL PRECIPITATION VALUES (IN):.00 0.00 0.00 0.00 0.00 0.00 0.00 0.00 0.00 0.00 0.00 0.00 0.00 0.00 0.00 0.00 0.00 0.00 0.00 0.00 0.00 0.00 0.00 0.00","SOD  ","6",,,,,,,,,,,,,,,,,,,,,,,,,"0427","1854","2006-10-05"
"72509014739","2020-05-11T00:54:00","FM-15","7",,"ESE","2.6","mi","SNOW","20",,"SNOWBOARD, SNOW RULER","42.3517","-70.9606","MWRA DEER ISLAND TREATMENT PLANT",,,,,,,,,,,,,,,,,,,,,,,,,,,,"29.93","33","47","0.00",,"-0.01","0","59","29.93","SCT:04 140 BKN:07 250","29.90","10.00","41","230",,"9",,,,,,,,,,,,,,,,,,,,,,,,,,,,,,,,,,,,,"MET12505/11/20 00:54:02 METAR KBOS 110554Z 23008KT 10SM SCT140 BKN250 08/01 A2993 RMK AO2 SLP134 T00830006 10133 20072 50002 $ (FA)","FM-15","7",,,,,,,,,,,,,,,,,,,,,,,,,,,"2006-10-05"
"72509014739","2020-05-11T01:00:00","FM-12","4",,"ESE","2.6","mi","SNOW","20",,"SNOWBOARD, SNOW RULER","42.3517","-70.9606","MWRA DEER ISLAND TREATMENT PLANT",,,,,,,,,,,,,,,,,,,,,,,,,,,,,"33","47",,,"0.01","9","59","29.93",,"29.91","9.94","41","230",,"9",,,,,,,,,,,,,,,,,,,,,,,,,,,,,,,,,,,,,"SYN08072509 32966 62308 10083 20006 30128 40134 50002 90554 333 10133 20011 555 91106=","FM-12","4",,,,,,,,,,,,,,,,,,,,,,,,,,,"2006-10-05"
"72509014739","2020-05-11T01:54:00","FM-15","7",,"ESE","2.6","mi","SNOW","20",,"SNOWBOARD, SNOW RULER","42.3517","-70.9606","MWRA DEER ISLAND TREATMENT PLANT",,,,,,,,,,,,,,,,,,,,,,,,,,,,"29.93","35","46","0.00",,,,"66","29.93","SCT:04 140 BKN:07 250","29.90","10.00","41","230",,"9",,,,,,,,,,,,,,,,,,,,,,,,,,,,,,,,,,,,,"MET10705/11/20 01:54:02 METAR KBOS 110654Z 23008KT 10SM SCT140 BKN250 08/02 A2993 RMK AO2 SLP134 T00780017 $ (FA)","FM-15","7",,,,,,,,,,,,,,,,,,,,,,,,,,,"2006-10-05"
"72509014739","2020-05-11T02:54:00","FM-15","7",,"ESE","2.6","mi","SNOW","20",,"SNOWBOARD, SNOW RULER","42.3517","-70.9606","MWRA DEER ISLAND TREATMENT PLANT",,,,,,,,,,,,,,,,,,,,,,,,,,,,"29.92","37","46","0.00",,,,"71","29.92","BKN:07 140 BKN:07 250","29.89","10.00","42","210",,"9",,,,,,,,,,,,,,,,,,,,,,,,,,,,,,,,,,,,,"MET10705/11/20 02:54:02 METAR KBOS 110754Z 21008KT 10SM BKN140 BKN250 08/03 A2992 RMK AO2 SLP133 T00780028 $ (FA)","FM-15","7",,,,,,,,,,,,,,,,,,,,,,,,,,,"2006-10-05"
"72509014739","2020-05-11T03:54:00","FM-15","7",,"ESE","2.6","mi","SNOW","20",,"SNOWBOARD, SNOW RULER","42.3517","-70.9606","MWRA DEER ISLAND TREATMENT PLANT",,,,,,,,,,,,,,,,,,,,,,,,,,,,"29.92","38","45","0.00",,"+0.01","8","77","29.92","SCT:04 140 BKN:07 250","29.89","10.00","42","220",,"7",,,,,,,,,,,,,,,,,,,,,,,,,,,,,,,,,,,,,"MET11305/11/20 03:54:02 METAR KBOS 110854Z 22006KT 10SM SCT140 BKN250 07/03 A2992 RMK AO2 SLP132 T00720033 58002 $ (FA)","FM-15","7",,,,,,,,,,,,,,,,,,,,,,,,,,,"2006-10-05"
"72509014739","2020-05-11T04:00:00","FM-12","4",,"ESE","2.6","mi","SNOW","20",,"SNOWBOARD, SNOW RULER","42.3517","-70.9606","MWRA DEER ISLAND TREATMENT PLANT",,,,,,,,,,,,,,,,,,,,,,,,,,,,,"38","45",,,"+0.01","8","77","29.92",,"29.90","9.94","42","220",,"7",,,,,,,,,,,,,,,,,,,,,,,,,,,,,,,,,,,,,"SYN06472509 32966 62206 10072 20033 30124 40132 58002 90854 555 91109=","FM-12","4",,,,,,,,,,,,,,,,,,,,,,,,,,,"2006-10-05"
"72509014739","2020-05-11T04:54:00","FM-15","7",,"ESE","2.6","mi","SNOW","20",,"SNOWBOARD, SNOW RULER","42.3517","-70.9606","MWRA DEER ISLAND TREATMENT PLANT",,,,,,,,,,,,,,,,,,,,,,,,,,,,"29.92","39","45","0.00",,,,"80","29.92","FEW:02 140 FEW:02 250","29.89","10.00","42","230",,"5",,,,,,,,,,,,,,,,,,,,,,,,,,,,,,,,,,,,,"MET10705/11/20 04:54:02 METAR KBOS 110954Z 23004KT 10SM FEW140 FEW250 07/04 A2992 RMK AO2 SLP131 T00720039 $ (DH)","FM-15","7",,,,,,,,,,,,,,,,,,,,,,,,,,,"2006-10-05"
"72509014739","2020-05-11T05:54:00","FM-15","7",,"ESE","2.6","mi","SNOW","20",,"SNOWBOARD, SNOW RULER","42.3517","-70.9606","MWRA DEER ISLAND TREATMENT PLANT",,,,,,,,,,,,,,,,,,,,,,,,,,,,"29.92","41","47","0.00",,,,"80","29.92","FEW:02 140","29.89","10.00","44","210",,"5",,,,,,,,,,,,,,,,,,,,,,,,,,,,,,,,,,,,,"MET10005/11/20 05:54:02 METAR KBOS 111054Z 21004KT 10SM FEW140 08/05 A2992 RMK AO2 SLP131 T00830050 $ (DH)","FM-15","7",,,,,,,,,,,,,,,,,,,,,,,,,,,"2006-10-05"
"72509014739","2020-05-11T06:54:00","FM-15","7",,"ESE","2.6","mi","SNOW","20",,"SNOWBOARD, SNOW RULER","42.3517","-70.9606","MWRA DEER ISLAND TREATMENT PLANT",,,,,,,,,,,,,,,,,,,,,,,,,,,,"29.91","42","50","0.00",,"+0.01","8","74","29.91","FEW:02 250","29.88","10.00","46","000",,"0",,,,,,,,,,,,,,,,,,,,,,,,,,,,,,,,,,,,,"MET11805/11/20 06:54:02 METAR KBOS 111154Z 00000KT 10SM FEW250 10/06 A2991 RMK AO2 SLP128 T01000056 10100 20067 58004 $ (DH)","FM-15","7",,,,,,,,,,,,,,,,,,,,,,,,,,,"2006-10-05"
"72509014739","2020-05-11T07:00:00","FM-12","4",,"ESE","2.6","mi","SNOW","20",,"SNOWBOARD, SNOW RULER","42.3517","-70.9606","MWRA DEER ISLAND TREATMENT PLANT",,,,,,,,,,,,,,,,,,,,,,,,,,,,,"42","50",,,"+0.01","8","74","29.91",,"29.89","9.94","46","000",,"0",,,,,,,,,,,,,,,,,,,,,,,,,,,,,,,,,,,,,"SYN08072509 32966 20000 10100 20056 30121 40128 58004 91154 333 10156 20067 555 91112=","FM-12","4",,,,,,,,,,,,,,,,,,,,,,,,,,,"2006-10-05"
"72509014739","2020-05-11T07:54:00","FM-15","7",,"ESE","2.6","mi","SNOW","20",,"SNOWBOARD, SNOW RULER","42.3517","-70.9606","MWRA DEER ISLAND TREATMENT PLANT",,,,,,,,,,,,,,,,,,,,,,,,,,,,"29.89","42","51","0.00",,,,"71","29.89","SCT:04 250","29.86","10.00","47","120",,"7",,,,,,,,,,,,,,,,,,,,,,,,,,,,,,,,,,,,,"MET09805/11/20 07:54:02 METAR KBOS 111254Z 12006KT 10SM SCT250 11/06 A2989 RMK AO2 SLP122 T01060056 (DH)","FM-15","7",,,,,,,,,,,,,,,,,,,,,,,,,,,"2006-10-05"
"72509014739","2020-05-11T08:54:00","FM-15","7",,"ESE","2.6","mi","SNOW","20",,"SNOWBOARD, SNOW RULER","42.3517","-70.9606","MWRA DEER ISLAND TREATMENT PLANT",,,,,,,,,,,,,,,,,,,,,,,,,,,,"29.88","42","54","0.00",,,,"64","29.88","FEW:02 250","29.85","10.00","48","070",,"9",,,,,,,,,,,,,,,,,,,,,,,,,,,,,,,,,,,,,"MET09805/11/20 08:54:02 METAR KBOS 111354Z 07008KT 10SM FEW250 12/06 A2988 RMK AO2 SLP119 T01220056 (DH)","FM-15","7",,,,,,,,,,,,,,,,,,,,,,,,,,,"2006-10-05"
"72509014739","2020-05-11T09:54:00","FM-15","7",,"ESE","2.6","mi","SNOW","20",,"SNOWBOARD, SNOW RULER","42.3517","-70.9606","MWRA DEER ISLAND TREATMENT PLANT",,,,,,,,,,,,,,,,,,,,,,,,,,,,"29.87","44","55","0.00",,"+0.04","8","67","29.86","FEW:02 55 FEW:02 140 BKN:07 250","29.84","10.00","50","090",,"16",,,,,,,,,,,,,,,,,,,,,,,,,,,,,,,,,,,,,"MET11805/11/20 09:54:02 METAR KBOS 111454Z 09014KT 10SM FEW055 FEW140 BKN250 13/07 A2987 RMK AO2 SLP113 T01280067 58015 (DH)","FM-15","7",,,,,,,,,,,,,,,,,,,,,,,,,,,"2006-10-05"
"72509014739","2020-05-11T10:00:00","FM-12","4",,"ESE","2.6","mi","SNOW","20",,"SNOWBOARD, SNOW RULER","42.3517","-70.9606","MWRA DEER ISLAND TREATMENT PLANT",,,,,,,,,,,,,,,,,,,,,,,,,,,,,"44","55",,,"+0.04","8","67","29.86","57","29.85","9.94","50","090",,"16",,,,,,,,,,,,,,,,,,,,,,,,,,,,,,,,,,,,,"SYN06472509 32766 60914 10128 20067 30107 40113 58015 91454 555 91115=","FM-12","4",,,,,,,,,,,,,,,,,,,,,,,,,,,"2006-10-05"
"72509014739","2020-05-11T10:54:00","FM-15","7",,"ESE","2.6","mi","SNOW","20",,"SNOWBOARD, SNOW RULER","42.3517","-70.9606","MWRA DEER ISLAND TREATMENT PLANT",,,,,,,,,,,,,,,,,,,,,,,,,,,,"29.83","46","54","0.00",,,,"75","29.83","FEW:02 55 FEW:02 140 BKN:07 250","29.80","10.00","50","070",,"11",,,,,,,,,,,,,,,,,,,,,,,,,,,,,,,,,,,,,"MET11205/11/20 10:54:02 METAR KBOS 111554Z 07010KT 10SM FEW055 FEW140 BKN250 12/08 A2983 RMK AO2 SLP100 T01220078 (DH)","FM-15","7",,,,,,,,,,,,,,,,,,,,,,,,,,,"2006-10-05"
"72509014739","2020-05-11T11:54:00","FM-15","7",,"ESE","2.6","mi","SNOW","20",,"SNOWBOARD, SNOW RULER","42.3517","-70.9606","MWRA DEER ISLAND TREATMENT PLANT",,,,,,,,,,,,,,,,,,,,,,,,,,,,"29.80","38","61","T","-RA:02 |RA |RA",,,"43","29.80","FEW:02 50 BKN:07 85 OVC:08 200","29.77","10.00","50","190",,"18",,,,,,,,,,,,,,,,,,,,,,,,,,,,,,,,,,,,,"MET12805/11/20 11:54:02 METAR KBOS 111654Z 19016KT 10SM -RA FEW050 BKN085 OVC200 16/03 A2980 RMK AO2 RAB43 SLP092 P0000 T01610033 (DH)","FM-15","7",,,,,,,,,,,,,,,,,,,,,,,,,,,"2006-10-05"
"72509014739","2020-05-11T12:54:00","FM-15","7",,"ESE","2.6","mi","SNOW","20",,"SNOWBOARD, SNOW RULER","42.3517","-70.9606","MWRA DEER ISLAND TREATMENT PLANT",,,,,,,,,,,,,,,,,,,,,,,,,,,,"29.81","47","55","T","-RA:02 |RA |RA","+0.06","5","74","29.80","FEW:02 12 SCT:04 50 OVC:08 75","29.78","10.00","51","190",,"17",,,,,,,,,,,,,,,,,,,,,,,,,,,,,,,,,,,,,"MET16505/11/20 12:54:02 METAR KBOS 111754Z 19015KT 10SM -RA FEW012 SCT050 OVC075 13/08 A2981 RMK AO2 PK WND 18029/1708 SLP093 P0000 60000 T01280083 10167 20094 55020 (HGC)","FM-15","7",,,,,,,,,,,,,,,,,,,,,,,,,,,"2006-10-05"
"72509014739","2020-05-11T13:00:00","FM-12","4",,"ESE","2.6","mi","SNOW","20",,"SNOWBOARD, SNOW RULER","42.3517","-70.9606","MWRA DEER ISLAND TREATMENT PLANT",,,,,,,,,,,,,,,,,,,,,,,,,,,,,"47","55",,"||RA","+0.06","5","74","29.80","15","29.79","9.94","51","190",,"17",,,,,,,,,,,,,,,,,,,,,,,,,,,,,,,,,,,,,"SYN09272509 11466 81915 10128 20083 30087 40093 55020 69901 761// 91754 333 10167 20094 555 91118=","FM-12","4",,,,,,,,,,,,,,,,,,,,,,,,,,,"2006-10-05"
"72509014739","2020-05-11T13:54:00","FM-15","7",,"ESE","2.6","mi","SNOW","20",,"SNOWBOARD, SNOW RULER","42.3517","-70.9606","MWRA DEER ISLAND TREATMENT PLANT",,,,,,,,,,,,,,,,,,,,,,,,,,,,"29.77","45","57","T",,,,"64","29.77","FEW:02 13 SCT:04 55 BKN:07 140","29.74","10.00","51","180",,"14",,,,,,,,,,,,,,,,,,,,,,,,,,,,,,,,,,,,,"MET12505/11/20 13:54:02 METAR KBOS 111854Z 18012KT 10SM FEW013 SCT055 BKN140 14/07 A2977 RMK AO2 RAE29 SLP080 P0000 T01390072 (HGC)","FM-15","7",,,,,,,,,,,,,,,,,,,,,,,,,,,"2006-10-05"
"72509014739","2020-05-11T14:54:00","FM-15","7",,"ESE","2.6","mi","SNOW","20",,"SNOWBOARD, SNOW RULER","42.3517","-70.9606","MWRA DEER ISLAND TREATMENT PLANT",,,,,,,,,,,,,,,,,,,,,,,,,,,,"29.74","44","58","0.00",,,,"60","29.73","FEW:02 17 SCT:04 38 BKN:07 80","29.71","10.00","51","190","26","21",,,,,,,,,,,,,,,,,,,,,,,,,,,,,,,,,,,,,"MET13405/11/20 14:54:02 METAR KBOS 111954Z 19018G23KT 10SM FEW017 SCT038 BKN080 14/07 A2974 RMK AO2 PK WND 17028/1930 SLP069 T01440067 (HGC)","FM-15","7",,,,,,,,,,,,,,,,,,,,,,,,,,,"2006-10-05"
"72509014739","2020-05-11T15:54:00","FM-15","7",,"ESE","2.6","mi","SNOW","20",,"SNOWBOARD, SNOW RULER","42.3517","-70.9606","MWRA DEER ISLAND TREATMENT PLANT",,,,,,,,,,,,,,,,,,,,,,,,,,,,"29.71","42","57","0.00",,"+0.10","6","58","29.71","FEW:02 17 BKN:07 38 BKN:07 140","29.68","10.00","50","170",,"17",,,,,,,,,,,,,,,,,,,,,,,,,,,,,,,,,,,,,"MET12505/11/20 15:54:02 METAR KBOS 112054Z 17015KT 10SM FEW017 BKN038 BKN140 14/06 A2971 RMK AO2 SLP061 60000 T01390056 56033 (HGC)","FM-15","7",,,,,,,,,,,,,,,,,,,,,,,,,,,"2006-10-05"
"72509014739","2020-05-11T16:00:00","FM-12","4",,"ESE","2.6","mi","SNOW","20",,"SNOWBOARD, SNOW RULER","42.3517","-70.9606","MWRA DEER ISLAND TREATMENT PLANT",,,,,,,,,,,,,,,,,,,,,,,,,,,,,"42","57",,,"+0.10","6","58","29.71","15","29.69","9.94","50","170",,"17",,,,,,,,,,,,,,,,,,,,,,,,,,,,,,,,,,,,,"SYN07072509 12466 81715 10139 20056 30053 40061 56033 69907 92054 555 91121=","FM-12","4",,,,,,,,,,,,,,,,,,,,,,,,,,,"2006-10-05"
"72509014739","2020-05-11T16:37:00","FM-16","7",,"ESE","2.6","mi","SNOW","20",,"SNOWBOARD, SNOW RULER","42.3517","-70.9606","MWRA DEER ISLAND TREATMENT PLANT",,,,,,,,,,,,,,,,,,,,,,,,,,,,"29.74","41","49","0.03","|RA |RA",,,"74",,"FEW:02 16 BKN:07 32 BKN:07 140","29.71","2.00","45","240","34","25",,,,,,,,,,,,,,,,,,,,,,,,,,,,,,,,,,,,,"MET18905/11/20 16:37:02 SPECI KBOS 112137Z 24022G30KT 2SM R04R/6000VP6000FT RA FEW016 BKN032 BKN140 09/05 A2974 RMK AO2 PK WND 23032/2126 WSHFT 2117 RAB20 PRESRR VIS SW-NW 1 P0003 T00940050 (HGC)","FM-16","7",,,,,,,,,,,,,,,,,,,,,,,,,,,"2006-10-05"
"72509014739","2020-05-11T16:42:00","FM-16","7",,"ESE","2.6","mi","SNOW","20",,"SNOWBOARD, SNOW RULER","42.3517","-70.9606","MWRA DEER ISLAND TREATMENT PLANT",,,,,,,,,,,,,,,,,,,,,,,,,,,,"29.74","41","48","0.06","|RA |RA",,,"77",,"FEW:02 16 BKN:07 32 BKN:07 140","29.71","1.25","45","240","34","20",,,,,,,,,,,,,,,,,,,,,,,,,,,,,,,,,,,,,"MET18805/11/20 16:42:02 SPECI KBOS 112142Z 24017G30KT 1 1/4SM R04R/6000VP6000FT RA FEW016 BKN032 BKN140 09/05 A2974 RMK AO2 PK WND 23032/2126 WSHFT 2117 LTG DSNT SW RAB20 P0006 T00890050 $ (HGC)","FM-16","7",,,,,,,,,,,,,,,,,,,,,,,,,,,"2006-10-05"
"72509014739","2020-05-11T16:54:00","FM-15","7",,"ESE","2.6","mi","SNOW","20",,"SNOWBOARD, SNOW RULER","42.3517","-70.9606","MWRA DEER ISLAND TREATMENT PLANT",,,,,,,,,,,,,,,,,,,,,,,,,,,,"29.74","43","49","0.13","-RA:02 |RA |RA",,,"80","29.73","FEW:02 13 BKN:07 32 OVC:08 140","29.71","3.00","46","250","23","11",,,,,,,,,,,,,,,,,,,,,,,,,,,,,,,,,,,,,"MET18005/11/20 16:54:02 METAR KBOS 112154Z 25010G20KT 3SM -RA FEW013 BKN032 OVC140 09/06 A2974 RMK AO2 PK WND 23032/2126 WSHFT 2117 LTG DSNT S AND SW RAB20 SLP069 P0011 T00940061 $ (HGC)","FM-15","7",,,,,,,,,,,,,,,,,,,,,,,,,,,"2006-10-05"
"72509014739","2020-05-11T17:54:00","FM-15","7",,"ESE","2.6","mi","SNOW","20",,"SNOWBOARD, SNOW RULER","42.3517","-70.9606","MWRA DEER ISLAND TREATMENT PLANT",,,,,,,,,,,,,,,,,,,,,,,,,,,,"29.75","45","50","0.02","RA:02 |RA |RA",,,"83","29.74","SCT:04 13 BKN:07 35 OVC:08 140","29.72","3.00","48","220","31","24",,,,,,,,,,,,,,,,,,,,,,,,,,,,,,,,,,,,,"MET17205/11/20 17:54:02 METAR KBOS 112254Z 22021G27KT 3SM RA SCT013 BKN035 OVC140 10/07 A2975 RMK AO2 PK WND 22027/2254 LTG DSNT NW RAE19B52 PRESRR SLP072 P0004 T01000072 $ (HGC)","FM-15","7",,,,,,,,,,,,,,,,,,,,,,,,,,,"2006-10-05"
"72509014739","2020-05-11T18:06:00","FM-16","7",,"ESE","2.6","mi","SNOW","20",,"SNOWBOARD, SNOW RULER","42.3517","-70.9606","MWRA DEER ISLAND TREATMENT PLANT",,,,,,,,,,,,,,,,,,,,,,,,,,,,"29.74","43","48","0.03","|RA |RA",,,"83",,"SCT:04 13 BKN:07 31 BKN:07 140","29.71","3.00","46","270","24","8",,,,,,,,,,,,,,,,,,,,,,,,,,,,,,,,,,,,,"MET14305/11/20 18:06:02 SPECI KBOS 112306Z 27007G21KT 3SM +RA SCT013 BKN031 BKN140 09/06 A2974 RMK AO2 WSHFT 2246 LTG DSNT NW P0003 T00890061 $ (HGC)","FM-16","7",,,,,,,,,,,,,,,,,,,,,,,,,,,"2006-10-05"
"72509014739","2020-05-11T18:54:00","FM-15","7",,"ESE","2.6","mi","SNOW","20",,"SNOWBOARD, SNOW RULER","42.3517","-70.9606","MWRA DEER ISLAND TREATMENT PLANT",,,,,,,,,,,,,,,,,,,,,,,,,,,,"29.73","43","48","0.05",,"-0.02","0","83","29.73","FEW:02 15 OVC:08 65","29.70","10.00","46","200",,"11",,,,,,,,,,,,,,,,,,,,,,,,,,,,,,,,,,,,,"MET15505/11/20 18:54:02 METAR KBOS 112354Z 20010KT 10SM FEW015 OVC065 09/06 A2973 RMK AO2 WSHFT 2246 RAE17 SLP067 P0005 60020 T00890061 10156 20089 50006 $ (HGC)","FM-15","7",,,,,,,,,,,,,,,,,,,,,,,,,,,"2006-10-05"
"72509014739","2020-05-11T19:00:00","FM-12","4",,"ESE","2.6","mi","SNOW","20",,"SNOWBOARD, SNOW RULER","42.3517","-70.9606","MWRA DEER ISLAND TREATMENT PLANT",,,,,,,,,,,,,,,,,,,,,,,,,,,,,"43","48",,,"0.02","9","83","29.73","15","29.71","9.94","46","200",,"11",,,,,,,,,,,,,,,,,,,,,,,,,,,,,,,,,,,,,"SYN08672509 12466 82010 10089 20061 30060 40067 50006 60051 92354 333 10167 20067 555 91200=","FM-12","4",,,,,,,,,,,,,,,,,,,,,,,,,,,"2006-10-05"
"72509014739","2020-05-11T19:54:00","FM-15","7",,"ESE","2.6","mi","SNOW","20",,"SNOWBOARD, SNOW RULER","42.3517","-70.9606","MWRA DEER ISLAND TREATMENT PLANT",,,,,,,,,,,,,,,,,,,,,,,,,,,,"29.73","42","48","0.01",,,,"80","29.72","FEW:02 45 BKN:07 85 OVC:08 180","29.70","10.00","45","220",,"15",,,,,,,,,,,,,,,,,,,,,,,,,,,,,,,,,,,,,"MET12405/11/20 19:54:01 METAR KBOS 120054Z 22013KT 10SM FEW045 BKN085 OVC180 09/06 A2973 RMK AO2 RAB02E36 SLP066 P0001 T00890056 $","FM-15","7",,,,,,,,,,,,,,,,,,,,,,,,,,,"2006-10-05"
"72509014739","2020-05-11T20:54:00","FM-15","7",,"ESE","2.6","mi","SNOW","20",,"SNOWBOARD, SNOW RULER","42.3517","-70.9606","MWRA DEER ISLAND TREATMENT PLANT",,,,,,,,,,,,,,,,,,,,,,,,,,,,"29.74","43","48","0.01","-RA:02 |RA |RA",,,"83","29.74","SCT:04 37 OVC:08 47","29.71","10.00","46","240",,"9",,,,,,,,,,,,,,,,,,,,,,,,,,,,,,,,,,,,,"MET11805/11/20 20:54:01 METAR KBOS 120154Z 24008KT 10SM -RA SCT037 OVC047 09/06 A2974 RMK AO2 RAB30 SLP071 P0001 T00890061 $","FM-15","7",,,,,,,,,,,,,,,,,,,,,,,,,,,"2006-10-05"
"72509014739","2020-05-11T21:54:00","FM-15","7",,"ESE","2.6","mi","SNOW","20",,"SNOWBOARD, SNOW RULER","42.3517","-70.9606","MWRA DEER ISLAND TREATMENT PLANT",,,,,,,,,,,,,,,,,,,,,,,,,,,,"29.74","43","48","0.01",,"-0.01","0","83","29.73","SCT:04 49 BKN:07 60 OVC:08 70","29.71","10.00","46","260","22","11",,,,,,,,,,,,,,,,,,,,,,,,,,,,,,,,,,,,,"MET13605/11/20 21:54:01 METAR KBOS 120254Z 26010G19KT 10SM SCT049 BKN060 OVC070 09/06 A2974 RMK AO2 RAE32 SLP069 P0001 60003 T00890061 50003 $","FM-15","7",,,,,,,,,,,,,,,,,,,,,,,,,,,"2006-10-05"
"72509014739","2020-05-11T22:00:00","FM-12","4",,"ESE","2.6","mi","SNOW","20",,"SNOWBOARD, SNOW RULER","42.3517","-70.9606","MWRA DEER ISLAND TREATMENT PLANT",,,,,,,,,,,,,,,,,,,,,,,,,,,,,"43","48",,,"0.01","9","83","29.73","41","29.72","9.94","46","260",,"11",,,,,,,,,,,,,,,,,,,,,,,,,,,,,,,,,,,,,"SYN08072509 12666 82610 10089 20061 30063 40069 50003 69987 90254 333 91019 555 91203=","FM-12","4",,,,,,,,,,,,,,,,,,,,,,,,,,,"2006-10-05"
"72509014739","2020-05-11T22:54:00","FM-15","7",,"ESE","2.6","mi","SNOW","20",,"SNOWBOARD, SNOW RULER","42.3517","-70.9606","MWRA DEER ISLAND TREATMENT PLANT",,,,,,,,,,,,,,,,,,,,,,,,,,,,"29.75","41","47","T",,,,"80","29.75","SCT:04 42 BKN:07 50","29.72","10.00","44","280","23","15",,,,,,,,,,,,,,,,,,,,,,,,,,,,,,,,,,,,,"MET12005/11/20 22:54:02 METAR KBOS 120354Z 28013G20KT 10SM SCT042 BKN050 08/05 A2975 RMK AO2 RAB25E45 SLP073 P0000 T00830050 $","FM-15","7",,,,,,,,,,,,,,,,,,,,,,,,,,,"2006-10-05"
"72509014739","2020-05-11T23:54:00","FM-15","7",,"ESE","2.6","mi","SNOW","20",,"SNOWBOARD, SNOW RULER","42.3517","-70.9606","MWRA DEER ISLAND TREATMENT PLANT",,,,,,,,,,,,,,,,,,,,,,,,,,,,"29.77","40","46","0.00",,,,"79","29.76","SCT:04 33 BKN:07 60","29.74","10.00","43","280",,"14",,,,,,,,,,,,,,,,,,,,,,,,,,,,,,,,,,,,,"MET11205/11/20 23:54:02 METAR KBOS 120454Z 28012KT 10SM SCT033 BKN060 08/04 A2977 RMK AO2 SLP079 T00780044 401670067 $","FM-15","7",,,,,,,,,,,,,,,,,,,,,,,,,,,"2006-10-05"
"72509014739","2020-05-11T23:59:00","SOD  ","6",,"ESE","2.6","mi","SNOW","20",,"SNOWBOARD, SNOW RULER","42.3517","-70.9606","MWRA DEER ISLAND TREATMENT PLANT",,,,,,"41","53","73","29.82","29.80","46","11.9","0","-3.4","12","62","44","230","37","0.23",,"0.0","180","28","RA",,,,,,,,,,,,,,,,,,,,,,,,,,,,,,,,,,,,,,,,,,,,,,,,,,,,,,,"SOD73524 HR PRECIPITATION (IN): 0.23  24 HR SNOWFALL (IN):0.0  WEATHER(CODE):8  24 HR MAX TEMP (F): 6224 HR MIN TEMP (F): 44AVERAGE STATION PRESSURE:29.805 MINIMUM SEA LEVEL PRESSURE:29.70 TIME OF OCCURRENCE:1618 PEAK WIND SPEED (MPH): 37 PEAK WIND DIR (DEG):230 PEAK WIND TIME (LST):      FASTEST 2MIN SPEED (MPH): 28FASTEST 2MIN DIR (DEG):180 FASTEST 2MIN TIME (LST):     AVERAGE WIND SPEED (MPH):11.9 24 HR AVG TEMP (F): 53DEPART FROM NORMAL: -3  HEATING DEGREE DAYS: 12 COOLING DEGREE DAYS:  0 LATEST DAY MAX TEMP (0700-1900 LST):62  LATEST NIGHT MIN TEMP(1900-0800 LST):44 HOURLY INCREMENTAL PRECIPITATION VALUES (IN):.00 0.00 0.00 0.00 0.00 0.00 0.00 0.00 0.00 0.00 0.00 T    T    T    0.00 0.00 0.13 0.02 0.05 0.01 0.01 0.01 T    0.00","SOD  ","6",,,,,,,,,,,,,,,,,,,,,,,,,"0426","1855","2006-10-05"
"72509014739","2020-05-12T00:54:00","FM-15","7",,"ESE","2.6","mi","SNOW","20",,"SNOWBOARD, SNOW RULER","42.3517","-70.9606","MWRA DEER ISLAND TREATMENT PLANT",,,,,,,,,,,,,,,,,,,,,,,,,,,,"29.78","35","44","0.00",,"-0.04","1","71","29.77","CLR:00","29.75","10.00","40","290","26","18",,,,,,,,,,,,,,,,,,,,,,,,,,,,,,,,,,,,,"MET14205/12/20 00:54:02 METAR KBOS 120554Z 29016G23KT 10SM CLR 07/02 A2978 RMK AO2 PK WND 28026/0544 SLP082 60003 T00670017 10094 20067 51013 $ (FA)","FM-15","7",,,,,,,,,,,,,,,,,,,,,,,,,,,"2006-10-05"
"72509014739","2020-05-12T01:00:00","FM-12","4",,"ESE","2.6","mi","SNOW","20",,"SNOWBOARD, SNOW RULER","42.3517","-70.9606","MWRA DEER ISLAND TREATMENT PLANT",,,,,,,,,,,,,,,,,,,,,,,,,,,,,"35","44",,,"-0.04","1","71","29.77",,"29.76","9.94","40","290",,"18",,,,,,,,,,,,,,,,,,,,,,,,,,,,,,,,,,,,,"SYN09272509 12966 02916 10067 20017 30077 40082 51013 69981 90554 333 10100 20067 91023 555 91206=","FM-12","4",,,,,,,,,,,,,,,,,,,,,,,,,,,"2006-10-05"
"72509014739","2020-05-12T01:54:00","FM-15","7",,"ESE","2.6","mi","SNOW","20",,"SNOWBOARD, SNOW RULER","42.3517","-70.9606","MWRA DEER ISLAND TREATMENT PLANT",,,,,,,,,,,,,,,,,,,,,,,,,,,,"29.79","33","43","0.00",,,,"68","29.78","FEW:02 250","29.76","10.00","39","290","23","16",,,,,,,,,,,,,,,,,,,,,,,,,,,,,,,,,,,,,"MET10305/12/20 01:54:02 METAR KBOS 120654Z 29014G20KT 10SM FEW250 06/01 A2979 RMK AO2 SLP086 T00610006 $ (FA)","FM-15","7",,,,,,,,,,,,,,,,,,,,,,,,,,,"2006-10-05"
"72509014739","2020-05-12T02:54:00","FM-15","7",,"ESE","2.6","mi","SNOW","20",,"SNOWBOARD, SNOW RULER","42.3517","-70.9606","MWRA DEER ISLAND TREATMENT PLANT",,,,,,,,,,,,,,,,,,,,,,,,,,,,"29.79","33","42","0.00",,,,"71","29.79","FEW:02 50 FEW:02 250","29.76","10.00","38","290","25","17",,,,,,,,,,,,,,,,,,,,,,,,,,,,,,,,,,,,,"MET11005/12/20 02:54:02 METAR KBOS 120754Z 29015G22KT 10SM FEW050 FEW250 06/01 A2979 RMK AO2 SLP087 T00560006 $ (FA)","FM-15","7",,,,,,,,,,,,,,,,,,,,,,,,,,,"2006-10-05"
"72509014739","2020-05-12T03:54:00","FM-15","6",,"ESE","2.6","mi","SNOW","20",,"SNOWBOARD, SNOW RULER","42.3517","-70.9606","MWRA DEER ISLAND TREATMENT PLANT",,,,,,,,,,,,,,,,,,,,,,,,,,,,"29.80","32","42","0.00",,"-0.03","3","68","29.80","FEW:02 50 FEW:02 250","29.77","10.00","38","280","24","13",,,,,,,,,,,,,,,,,,,,,,,,,,,,,,,,,,,,,"MET11605/12/20 03:54:02 METAR KBOS 120854Z 28011G21KT 10SM FEW050 FEW250 06/00 A2980 RMK AO2 SLP092 T00560000 53010 $ (FA)","FM-15","6",,,,,,,,,,,,,,,,,,,,,,,,,,,"2006-10-05"
"72509014739","2020-05-12T04:54:00","FM-15","7",,"ESE","2.6","mi","SNOW","20",,"SNOWBOARD, SNOW RULER","42.3517","-70.9606","MWRA DEER ISLAND TREATMENT PLANT",,,,,,,,,,,,,,,,,,,,,,,,,,,,"29.82","31","41","0.00",,,,"67","29.81","FEW:02 50 FEW:02 250","29.79","10.00","37","290",,"15",,,,,,,,,,,,,,,,,,,,,,,,,,,,,,,,,,,,,"MET10805/12/20 04:54:02 METAR KBOS 120954Z 29013KT 10SM FEW050 FEW250 05/M01 A2982 RMK AO2 SLP096 T00501006 $ (DH)","FM-15","7",,,,,,,,,,,,,,,,,,,,,,,,,,,"2006-10-05"
"72509014739","2020-05-12T05:54:00","FM-15","7",,"ESE","2.6","mi","SNOW","20",,"SNOWBOARD, SNOW RULER","42.3517","-70.9606","MWRA DEER ISLAND TREATMENT PLANT",,,,,,,,,,,,,,,,,,,,,,,,,,,,"29.84","32","43","0.00",,,,"65","29.84","FEW:02 60","29.81","10.00","38","280","22","16",,,,,,,,,,,,,,,,,,,,,,,,,,,,,,,,,,,,,"MET10305/12/20 05:54:02 METAR KBOS 121054Z 28014G19KT 10SM FEW060 06/00 A2984 RMK AO2 SLP104 T00610000 $ (DH)","FM-15","7",,,,,,,,,,,,,,,,,,,,,,,,,,,"2006-10-05"
"72509014739","2020-05-12T06:54:00","FM-15","7",,"ESE","2.6","mi","SNOW","20",,"SNOWBOARD, SNOW RULER","42.3517","-70.9606","MWRA DEER ISLAND TREATMENT PLANT",,,,,,,,,,,,,,,,,,,,,,,,,,,,"29.86","32","45","0.00",,"-0.05","3","61","29.85","FEW:02 60","29.83","10.00","39","300","28","16",,,,,,,,,,,,,,,,,,,,,,,,,,,,,,,,,,,,,"MET12705/12/20 06:54:02 METAR KBOS 121154Z 30014G24KT 10SM FEW060 07/00 A2986 RMK AO2 SLP110 70023 T00720000 10072 20050 53018 $ (DH)","FM-15","7",,,,,,,,,,,,,,,,,,,,,,,,,,,"2006-10-05"
"72509014739","2020-05-12T07:00:00","FM-12","4",,"ESE","2.6","mi","SNOW","20",,"SNOWBOARD, SNOW RULER","42.3517","-70.9606","MWRA DEER ISLAND TREATMENT PLANT",,,,,,,,,,,,,,,,,,,,,,,,,,,,,"32","45",,,"-0.05","3","61","29.85","57","29.84","9.94","39","300",,"16",,,,,,,,,,,,,,,,,,,,,,,,,,,,,,,,,,,,,"SYN09272509 32766 23014 10072 20000 30104 40110 53018 91154 333 10167 20050 70058 91024 555 91212=","FM-12","4",,,,,,,,,,,,,,,,,,,,,,,,,,,"2006-10-05"
"72509014739","2020-05-12T07:54:00","FM-15","7",,"ESE","2.6","mi","SNOW","20",,"SNOWBOARD, SNOW RULER","42.3517","-70.9606","MWRA DEER ISLAND TREATMENT PLANT",,,,,,,,,,,,,,,,,,,,,,,,,,,,"29.87","30","48","0.00",,,,"50","29.86","FEW:02 50","29.84","10.00","40","290","24","18",,,,,,,,,,,,,,,,,,,,,,,,,,,,,,,,,,,,,"MET10405/12/20 07:54:02 METAR KBOS 121254Z 29016G21KT 10SM FEW050 09/M01 A2987 RMK AO2 SLP113 T00891011 $ (DH)","FM-15","7",,,,,,,,,,,,,,,,,,,,,,,,,,,"2006-10-05"
"72509014739","2020-05-12T08:54:00","FM-15","7",,"ESE","2.6","mi","SNOW","20",,"SNOWBOARD, SNOW RULER","42.3517","-70.9606","MWRA DEER ISLAND TREATMENT PLANT",,,,,,,,,,,,,,,,,,,,,,,,,,,,"29.87","29","51","0.00",,,,"43","29.87","SCT:04 48","29.84","10.00","42","300","24","13",,,,,,,,,,,,,,,,,,,,,,,,,,,,,,,,,,,,,"MET10405/12/20 08:54:02 METAR KBOS 121354Z 30011G21KT 10SM SCT048 11/M02 A2987 RMK AO2 SLP114 T01061017 $ (DH)","FM-15","7",,,,,,,,,,,,,,,,,,,,,,,,,,,"2006-10-05"
"72509014739","2020-05-12T09:54:00","FM-15","7",,"ESE","2.6","mi","SNOW","20",,"SNOWBOARD, SNOW RULER","42.3517","-70.9606","MWRA DEER ISLAND TREATMENT PLANT",,,,,,,,,,,,,,,,,,,,,,,,,,,,"29.88","29","50","0.00",,"-0.02","1","44","29.87","BKN:07 50","29.85","10.00","41","280","26","18",,,,,,,,,,,,,,,,,,,,,,,,,,,,,,,,,,,,,"MET11005/12/20 09:54:02 METAR KBOS 121454Z 28016G23KT 10SM BKN050 10/M02 A2988 RMK AO2 SLP116 T01001017 51006 $ (DH)","FM-15","7",,,,,,,,,,,,,,,,,,,,,,,,,,,"2006-10-05"
"72509014739","2020-05-12T10:00:00","FM-12","4",,"ESE","2.6","mi","SNOW","20",,"SNOWBOARD, SNOW RULER","42.3517","-70.9606","MWRA DEER ISLAND TREATMENT PLANT",,,,,,,,,,,,,,,,,,,,,,,,,,,,,"29","50",,,"-0.02","1","44","29.87","57","29.86","9.94","41","280",,"18",,,,,,,,,,,,,,,,,,,,,,,,,,,,,,,,,,,,,"SYN07472509 32766 62816 10100 21017 30111 40116 51006 91454 333 91023 555 91215=","FM-12","4",,,,,,,,,,,,,,,,,,,,,,,,,,,"2006-10-05"
"72509014739","2020-05-12T10:54:00","FM-15","7",,"ESE","2.6","mi","SNOW","20",,"SNOWBOARD, SNOW RULER","42.3517","-70.9606","MWRA DEER ISLAND TREATMENT PLANT",,,,,,,,,,,,,,,,,,,,,,,,,,,,"29.87","30","52","0.00",,,,"43","29.87","BKN:07 50","29.84","10.00","42","280","22","14",,,,,,,,,,,,,,,,,,,,,,,,,,,,,,,,,,,,,"MET10405/12/20 10:54:02 METAR KBOS 121554Z 28012G19KT 10SM BKN050 11/M01 A2987 RMK AO2 SLP116 T01111011 $ (DH)","FM-15","7",,,,,,,,,,,,,,,,,,,,,,,,,,,"2006-10-05"
"72509014739","2020-05-12T11:54:00","FM-15","7",,"ESE","2.6","mi","SNOW","20",,"SNOWBOARD, SNOW RULER","42.3517","-70.9606","MWRA DEER ISLAND TREATMENT PLANT",,,,,,,,,,,,,,,,,,,,,,,,,,,,"29.86","28","53","0.00",,,,"38","29.86","BKN:07 60","29.83","10.00","42","280","25","18",,,,,,,,,,,,,,,,,,,,,,,,,,,,,,,,,,,,,"MET10405/12/20 11:54:02 METAR KBOS 121654Z 28016G22KT 10SM BKN060 12/M02 A2986 RMK AO2 SLP111 T01171022 $ (DH)","FM-15","7",,,,,,,,,,,,,,,,,,,,,,,,,,,"2006-10-05"
"72509014739","2020-05-12T12:54:00","FM-15","7",,"ESE","2.6","mi","SNOW","20",,"SNOWBOARD, SNOW RULER","42.3517","-70.9606","MWRA DEER ISLAND TREATMENT PLANT",,,,,,,,,,,,,,,,,,,,,,,,,,,,"29.86","28","52","0.00",,"+0.01","5","40","29.86","BKN:07 60","29.83","10.00","42","260",,"15",,,,,,,,,,,,,,,,,,,,,,,,,,,,,,,,,,,,,"MET12005/12/20 12:54:02 METAR KBOS 121754Z 26013KT 10SM BKN060 11/M02 A2986 RMK AO2 SLP112 T01111022 10122 20072 55004 $ (HGC)","FM-15","7",,,,,,,,,,,,,,,,,,,,,,,,,,,"2006-10-05"
"72509014739","2020-05-12T13:00:00","FM-12","4",,"ESE","2.6","mi","SNOW","20",,"SNOWBOARD, SNOW RULER","42.3517","-70.9606","MWRA DEER ISLAND TREATMENT PLANT",,,,,,,,,,,,,,,,,,,,,,,,,,,,,"28","52",,,"+0.01","5","40","29.86","57","29.84","9.94","42","260",,"15",,,,,,,,,,,,,,,,,,,,,,,,,,,,,,,,,,,,,"SYN08072509 32766 62613 10111 21022 30104 40112 55004 91754 333 10122 20072 555 91218=","FM-12","4",,,,,,,,,,,,,,,,,,,,,,,,,,,"2006-10-05"
"72509014739","2020-05-12T13:54:00","FM-15","7",,"ESE","2.6","mi","SNOW","20",,"SNOWBOARD, SNOW RULER","42.3517","-70.9606","MWRA DEER ISLAND TREATMENT PLANT",,,,,,,,,,,,,,,,,,,,,,,,,,,,"29.86","26","54","0.00",,,,"34","29.85","BKN:07 65","29.83","10.00","42","270","31","20",,,,,,,,,,,,,,,,,,,,,,,,,,,,,,,,,,,,,"MET12105/12/20 13:54:02 METAR KBOS 121854Z 27017G27KT 10SM BKN065 12/M03 A2986 RMK AO2 PK WND 27027/1846 SLP110 T01221033 (HGC)","FM-15","7",,,,,,,,,,,,,,,,,,,,,,,,,,,"2006-10-05"
"72509014739","2020-05-12T14:54:00","FM-15","7",,"ESE","2.6","mi","SNOW","20",,"SNOWBOARD, SNOW RULER","42.3517","-70.9606","MWRA DEER ISLAND TREATMENT PLANT",,,,,,,,,,,,,,,,,,,,,,,,,,,,"29.86","23","55","0.00",,,,"29","29.85","BKN:07 70","29.83","10.00","42","260","25","16",,,,,,,,,,,,,,,,,,,,,,,,,,,,,,,,,,,,,"MET10305/12/20 14:54:02 METAR KBOS 121954Z 26014G22KT 10SM BKN070 13/M05 A2986 RMK AO2 SLP110 T01281050 (HGC)","FM-15","7",,,,,,,,,,,,,,,,,,,,,,,,,,,"2006-10-05"
"72509014739","2020-05-12T15:54:00","FM-15","7",,"ESE","2.6","mi","SNOW","20",,"SNOWBOARD, SNOW RULER","42.3517","-70.9606","MWRA DEER ISLAND TREATMENT PLANT",,,,,,,,,,,,,,,,,,,,,,,,,,,,"29.87","21","55","0.00",,"-0.01","3","26","29.87","BKN:07 75","29.84","10.00","41","280","30","21",,,,,,,,,,,,,,,,,,,,,,,,,,,,,,,,,,,,,"MET12705/12/20 15:54:02 METAR KBOS 122054Z 28018G26KT 10SM BKN075 13/M06 A2987 RMK AO2 PK WND 26027/2004 SLP116 T01281061 53003 (HGC)","FM-15","7",,,,,,,,,,,,,,,,,,,,,,,,,,,"2006-10-05"
"72509014739","2020-05-12T16:00:00","FM-12","4",,"ESE","2.6","mi","SNOW","20",,"SNOWBOARD, SNOW RULER","42.3517","-70.9606","MWRA DEER ISLAND TREATMENT PLANT",,,,,,,,,,,,,,,,,,,,,,,,,,,,,"21","55",,,"-0.01","3","26","29.87","74","29.85","9.94","41","280",,"21",,,,,,,,,,,,,,,,,,,,,,,,,,,,,,,,,,,,,"SYN07472509 32866 62818 10128 21061 30107 40116 53003 92054 333 91026 555 91221=","FM-12","4",,,,,,,,,,,,,,,,,,,,,,,,,,,"2006-10-05"
"72509014739","2020-05-12T16:54:00","FM-15","7",,"ESE","2.6","mi","SNOW","20",,"SNOWBOARD, SNOW RULER","42.3517","-70.9606","MWRA DEER ISLAND TREATMENT PLANT",,,,,,,,,,,,,,,,,,,,,,,,,,,,"29.89","20","54","0.00",,,,"26","29.89","BKN:07 80","29.86","10.00","41","280","26","18",,,,,,,,,,,,,,,,,,,,,,,,,,,,,,,,,,,,,"MET12105/12/20 16:54:02 METAR KBOS 122154Z 28016G23KT 10SM BKN080 12/M07 A2989 RMK AO2 PK WND 29026/2100 SLP121 T01221067 (HGC)","FM-15","7",,,,,,,,,,,,,,,,,,,,,,,,,,,"2006-10-05"
"72509014739","2020-05-12T17:54:00","FM-15","7",,"ESE","2.6","mi","SNOW","20",,"SNOWBOARD, SNOW RULER","42.3517","-70.9606","MWRA DEER ISLAND TREATMENT PLANT",,,,,,,,,,,,,,,,,,,,,,,,,,,,"29.93","19","53","0.00",,,,"26","29.93","BKN:07 80","29.90","10.00","40","290",,"14",,,,,,,,,,,,,,,,,,,,,,,,,,,,,,,,,,,,,"MET11805/12/20 17:54:02 METAR KBOS 122254Z 29012KT 10SM BKN080 12/M07 A2993 RMK AO2 PK WND 28028/2213 SLP134 T01171072 (HGC)","FM-15","7",,,,,,,,,,,,,,,,,,,,,,,,,,,"2006-10-05"
"72509014739","2020-05-12T18:54:00","FM-15","7",,"ESE","2.6","mi","SNOW","20",,"SNOWBOARD, SNOW RULER","42.3517","-70.9606","MWRA DEER ISLAND TREATMENT PLANT",,,,,,,,,,,,,,,,,,,,,,,,,,,,"29.97","19","50","0.00",,"-0.10","3","29","29.97","SCT:04 85","29.94","10.00","38","270","28","16",,,,,,,,,,,,,,,,,,,,,,,,,,,,,,,,,,,,,"MET13905/12/20 18:54:02 METAR KBOS 122354Z 27014G24KT 10SM SCT085 10/M07 A2997 RMK AO2 PK WND 29026/2313 SLP149 T01001072 10133 20100 53034 (HGC)","FM-15","7",,,,,,,,,,,,,,,,,,,,,,,,,,,"2006-10-05"
"72509014739","2020-05-12T19:00:00","FM-12","4",,"ESE","2.6","mi","SNOW","20",,"SNOWBOARD, SNOW RULER","42.3517","-70.9606","MWRA DEER ISLAND TREATMENT PLANT",,,,,,,,,,,,,,,,,,,,,,,,,,,,,"19","50",,,"-0.10","3","29","29.97",,"29.95","9.94","38","270",,"16",,,,,,,,,,,,,,,,,,,,,,,,,,,,,,,,,,,,,"SYN08672509 32966 42714 10100 21072 30141 40149 53034 92354 333 10133 20050 91024 555 91300=","FM-12","4",,,,,,,,,,,,,,,,,,,,,,,,,,,"2006-10-05"
"72509014739","2020-05-12T19:54:00","FM-15","7",,"ESE","2.6","mi","SNOW","20",,"SNOWBOARD, SNOW RULER","42.3517","-70.9606","MWRA DEER ISLAND TREATMENT PLANT",,,,,,,,,,,,,,,,,,,,,,,,,,,,"30.02","18","48","0.00",,,,"30","30.01","FEW:02 90","29.99","10.00","37","280",,"13",,,,,,,,,,,,,,,,,,,,,,,,,,,,,,,,,,,,,"MET09405/12/20 19:54:01 METAR KBOS 130054Z 28011KT 10SM FEW090 09/M08 A3002 RMK AO2 SLP163 T00891078","FM-15","7",,,,,,,,,,,,,,,,,,,,,,,,,,,"2006-10-05"
"72509014739","2020-05-12T20:54:00","FM-15","7",,"ESE","2.6","mi","SNOW","20",,"SNOWBOARD, SNOW RULER","42.3517","-70.9606","MWRA DEER ISLAND TREATMENT PLANT",,,,,,,,,,,,,,,,,,,,,,,,,,,,"30.04","16","47","0.00",,,,"29","30.03","FEW:02 85","30.01","10.00","36","280",,"10",,,,,,,,,,,,,,,,,,,,,,,,,,,,,,,,,,,,,"MET09405/12/20 20:54:01 METAR KBOS 130154Z 28009KT 10SM FEW085 08/M09 A3004 RMK AO2 SLP171 T00831089","FM-15","7",,,,,,,,,,,,,,,,,,,,,,,,,,,"2006-10-05"
"72509014739","2020-05-12T21:54:00","FM-15","7",,"ESE","2.6","mi","SNOW","20",,"SNOWBOARD, SNOW RULER","42.3517","-70.9606","MWRA DEER ISLAND TREATMENT PLANT",,,,,,,,,,,,,,,,,,,,,,,,,,,,"30.05","16","46","0.00",,"-0.07","1","30","30.04","FEW:02 130","30.02","10.00","35","280","23","15",,,,,,,,,,,,,,,,,,,,,,,,,,,,,,,,,,,,,"MET10305/12/20 21:54:01 METAR KBOS 130254Z 28013G20KT 10SM FEW130 08/M09 A3005 RMK AO2 SLP174 T00781089 51024","FM-15","7",,,,,,,,,,,,,,,,,,,,,,,,,,,"2006-10-05"
"72509014739","2020-05-12T22:00:00","FM-12","4",,"ESE","2.6","mi","SNOW","20",,"SNOWBOARD, SNOW RULER","42.3517","-70.9606","MWRA DEER ISLAND TREATMENT PLANT",,,,,,,,,,,,,,,,,,,,,,,,,,,,,"16","46",,,"-0.07","1","30","30.04",,"30.03","9.94","35","280",,"15",,,,,,,,,,,,,,,,,,,,,,,,,,,,,,,,,,,,,"SYN07472509 32966 22813 10078 21089 30168 40174 51024 90254 333 91020 555 91303=","FM-12","4",,,,,,,,,,,,,,,,,,,,,,,,,,,"2006-10-05"
"72509014739","2020-05-12T22:54:00","FM-15","7",,"ESE","2.6","mi","SNOW","20",,"SNOWBOARD, SNOW RULER","42.3517","-70.9606","MWRA DEER ISLAND TREATMENT PLANT",,,,,,,,,,,,,,,,,,,,,,,,,,,,"30.06","16","45","0.00",,,,"31","30.06","FEW:02 150 FEW:02 200","30.03","10.00","35","280","25","16",,,,,,,,,,,,,,,,,,,,,,,,,,,,,,,,,,,,,"MET10405/12/20 22:54:02 METAR KBOS 130354Z 28014G22KT 10SM FEW150 FEW200 07/M09 A3006 RMK AO2 SLP178 T00721089","FM-15","7",,,,,,,,,,,,,,,,,,,,,,,,,,,"2006-10-05"
"72509014739","2020-05-12T23:54:00","FM-15","7",,"ESE","2.6","mi","SNOW","20",,"SNOWBOARD, SNOW RULER","42.3517","-70.9606","MWRA DEER ISLAND TREATMENT PLANT",,,,,,,,,,,,,,,,,,,,,,,,,,,,"30.07","18","43","0.00",,,,"37","30.07","BKN:07 150","30.04","10.00","34","290",,"9",,,,,,,,,,,,,,,,,,,,,,,,,,,,,,,,,,,,,"MET10405/12/20 23:54:02 METAR KBOS 130454Z 29008KT 10SM BKN150 06/M08 A3007 RMK AO2 SLP182 T00611078 401330050","FM-15","7",,,,,,,,,,,,,,,,,,,,,,,,,,,"2006-10-05"
"72509014739","2020-05-12T23:59:00","SOD  ","6",,"ESE","2.6","mi","SNOW","20",,"SNOWBOARD, SNOW RULER","42.3517","-70.9606","MWRA DEER ISLAND TREATMENT PLANT",,,,,,"26","49","43","29.89","29.83","39","15.7","0","-7.7","16","56","41","280","32","0.00",,"0.0","270","23",,,,,,,,,,,,,,,,,,,,,,,,,,,,,,,,,,,,,,,,,,,,,,,,,,,,,,,,"SOD71824 HR PRECIPITATION (IN): 0.00  24 HR SNOWFALL (IN):0.0  24 HR MAX TEMP (F): 5624 HR MIN TEMP (F): 41AVERAGE STATION PRESSURE:29.830 MINIMUM SEA LEVEL PRESSURE:29.76 TIME OF OCCURRENCE:0005 PEAK WIND SPEED (MPH): 32 PEAK WIND DIR (DEG):280 PEAK WIND TIME (LST):      FASTEST 2MIN SPEED (MPH): 23FASTEST 2MIN DIR (DEG):270 FASTEST 2MIN TIME (LST):     AVERAGE WIND SPEED (MPH):15.7 24 HR AVG TEMP (F): 49DEPART FROM NORMAL: -8  HEATING DEGREE DAYS: 16 COOLING DEGREE DAYS:  0 LATEST DAY MAX TEMP (0700-1900 LST):56  LATEST NIGHT MIN TEMP(1900-0800 LST):41 HOURLY INCREMENTAL PRECIPITATION VALUES (IN):.00 0.00 0.00 0.00 0.00 0.00 0.00 0.00 0.00 0.00 0.00 0.00 0.00 0.00 0.00 0.00 0.00 0.00 0.00 0.00 0.00 0.00 0.00 0.00","SOD  ","6",,,,,,,,,,,,,,,,,,,,,,,,,"0425","1856","2006-10-05"
"72509014739","2020-05-13T00:54:00","FM-15","7",,"ESE","2.6","mi","SNOW","20",,"SNOWBOARD, SNOW RULER","42.3517","-70.9606","MWRA DEER ISLAND TREATMENT PLANT",,,,,,,,,,,,,,,,,,,,,,,,,,,,"30.09","20","43","0.00",,"-0.04","3","40","30.09","FEW:02 36 SCT:04 65 BKN:07 100","30.06","10.00","35","310","23","16",,,,,,,,,,,,,,,,,,,,,,,,,,,,,,,,,,,,,"MET13505/13/20 00:54:02 METAR KBOS 130554Z 31014G20KT 10SM FEW036 SCT065 BKN100 06/M07 A3009 RMK AO2 SLP188 T00611067 10100 20061 53014 (ETM)","FM-15","7",,,,,,,,,,,,,,,,,,,,,,,,,,,"2006-10-05"
"72509014739","2020-05-13T01:00:00","FM-12","4",,"ESE","2.6","mi","SNOW","20",,"SNOWBOARD, SNOW RULER","42.3517","-70.9606","MWRA DEER ISLAND TREATMENT PLANT",,,,,,,,,,,,,,,,,,,,,,,,,,,,,"20","43",,,"-0.04","3","40","30.09","41","30.07","9.94","35","310",,"16",,,,,,,,,,,,,,,,,,,,,,,,,,,,,,,,,,,,,"SYN08672509 32666 63114 10061 21067 30182 40188 53014 90554 333 10100 20050 91020 555 91306=","FM-12","4",,,,,,,,,,,,,,,,,,,,,,,,,,,"2006-10-05"
"72509014739","2020-05-13T01:54:00","FM-15","7",,"ESE","2.6","mi","SNOW","20",,"SNOWBOARD, SNOW RULER","42.3517","-70.9606","MWRA DEER ISLAND TREATMENT PLANT",,,,,,,,,,,,,,,,,,,,,,,,,,,,"30.10","23","41","0.00",,,,"49","30.10","FEW:02 65","30.07","10.00","34","290",,"13",,,,,,,,,,,,,,,,,,,,,,,,,,,,,,,,,,,,,"MET10005/13/20 01:54:02 METAR KBOS 130654Z 29011KT 10SM FEW065 05/M05 A3010 RMK AO2 SLP193 T00501050 (ETM)","FM-15","7",,,,,,,,,,,,,,,,,,,,,,,,,,,"2006-10-05"
"72509014739","2020-05-13T02:54:00","FM-15","7",,"ESE","2.6","mi","SNOW","20",,"SNOWBOARD, SNOW RULER","42.3517","-70.9606","MWRA DEER ISLAND TREATMENT PLANT",,,,,,,,,,,,,,,,,,,,,,,,,,,,"30.13","25","39","0.00",,,,"57","30.13","CLR:00","30.10","10.00","34","290",,"11",,,,,,,,,,,,,,,,,,,,,,,,,,,,,,,,,,,,,"MET09705/13/20 02:54:02 METAR KBOS 130754Z 29010KT 10SM CLR 04/M04 A3013 RMK AO2 SLP202 T00391039 (ETM)","FM-15","7",,,,,,,,,,,,,,,,,,,,,,,,,,,"2006-10-05"
"72509014739","2020-05-13T03:54:00","FM-15","7",,"ESE","2.6","mi","SNOW","20",,"SNOWBOARD, SNOW RULER","42.3517","-70.9606","MWRA DEER ISLAND TREATMENT PLANT",,,,,,,,,,,,,,,,,,,,,,,,,,,,"30.15","25","38","0.00",,"-0.06","3","60","30.15","FEW:02 100","30.12","10.00","33","290",,"9",,,,,,,,,,,,,,,,,,,,,,,,,,,,,,,,,,,,,"MET10605/13/20 03:54:02 METAR KBOS 130854Z 29008KT 10SM FEW100 03/M04 A3015 RMK AO2 SLP209 T00331039 53022 (ETM)","FM-15","7",,,,,,,,,,,,,,,,,,,,,,,,,,,"2006-10-05"
"72509014739","2020-05-13T04:00:00","FM-12","4",,"ESE","2.6","mi","SNOW","20",,"SNOWBOARD, SNOW RULER","42.3517","-70.9606","MWRA DEER ISLAND TREATMENT PLANT",,,,,,,,,,,,,,,,,,,,,,,,,,,,,"25","38",,,"-0.06","3","60","30.15",,"30.13","9.94","33","290",,"9",,,,,,,,,,,,,,,,,,,,,,,,,,,,,,,,,,,,,"SYN06472509 32966 22908 10033 21039 30202 40209 53022 90854 555 91309=","FM-12","4",,,,,,,,,,,,,,,,,,,,,,,,,,,"2006-10-05"
"72509014739","2020-05-13T04:54:00","FM-15","7",,"ESE","2.6","mi","SNOW","20",,"SNOWBOARD, SNOW RULER","42.3517","-70.9606","MWRA DEER ISLAND TREATMENT PLANT",,,,,,,,,,,,,,,,,,,,,,,,,,,,"30.17","25","38","0.00",,,,"60","30.17","FEW:02 100","30.14","10.00","33","290",,"11",,,,,,,,,,,,,,,,,,,,,,,,,,,,,,,,,,,,,"MET09905/13/20 04:54:02 METAR KBOS 130954Z 29010KT 10SM FEW100 03/M04 A3017 RMK AO2 SLP216 T00331039 (DH)","FM-15","7",,,,,,,,,,,,,,,,,,,,,,,,,,,"2006-10-05"
"72509014739","2020-05-13T05:54:00","FM-15","7",,"ESE","2.6","mi","SNOW","20",,"SNOWBOARD, SNOW RULER","42.3517","-70.9606","MWRA DEER ISLAND TREATMENT PLANT",,,,,,,,,,,,,,,,,,,,,,,,,,,,"30.19","24","40","0.00",,,,"53","30.19","CLR:00","30.16","10.00","34","300",,"11",,,,,,,,,,,,,,,,,,,,,,,,,,,,,,,,,,,,,"MET09605/13/20 05:54:02 METAR KBOS 131054Z 30010KT 10SM CLR 04/M04 A3019 RMK AO2 SLP223 T00441044 (DH)","FM-15","7",,,,,,,,,,,,,,,,,,,,,,,,,,,"2006-10-05"
"72509014739","2020-05-13T06:54:00","FM-15","7",,"ESE","2.6","mi","SNOW","20",,"SNOWBOARD, SNOW RULER","42.3517","-70.9606","MWRA DEER ISLAND TREATMENT PLANT",,,,,,,,,,,,,,,,,,,,,,,,,,,,"30.21","24","44","0.00",,"-0.06","1","45","30.20","CLR:00","30.18","10.00","36","290",,"11",,,,,,,,,,,,,,,,,,,,,,,,,,,,,,,,,,,,,"MET11405/13/20 06:54:02 METAR KBOS 131154Z 29010KT 10SM CLR 07/M04 A3021 RMK AO2 SLP228 T00671044 10067 20028 51019 (DH)","FM-15","7",,,,,,,,,,,,,,,,,,,,,,,,,,,"2006-10-05"
"72509014739","2020-05-13T07:00:00","FM-12","4",,"ESE","2.6","mi","SNOW","20",,"SNOWBOARD, SNOW RULER","42.3517","-70.9606","MWRA DEER ISLAND TREATMENT PLANT",,,,,,,,,,,,,,,,,,,,,,,,,,,,,"24","44",,,"-0.06","1","45","30.20",,"30.19","9.94","36","290",,"11",,,,,,,,,,,,,,,,,,,,,,,,,,,,,,,,,,,,,"SYN08072509 32966 02910 10067 21044 30223 40228 51019 91154 333 10133 20028 555 91312=","FM-12","4",,,,,,,,,,,,,,,,,,,,,,,,,,,"2006-10-05"
"72509014739","2020-05-13T07:54:00","FM-15","7",,"ESE","2.6","mi","SNOW","20",,"SNOWBOARD, SNOW RULER","42.3517","-70.9606","MWRA DEER ISLAND TREATMENT PLANT",,,,,,,,,,,,,,,,,,,,,,,,,,,,"30.21","18","47","0.00",,,,"31","30.20","CLR:00","30.18","10.00","36","300",,"13",,,,,,,,,,,,,,,,,,,,,,,,,,,,,,,,,,,,,"MET09605/13/20 07:54:02 METAR KBOS 131254Z 30011KT 10SM CLR 08/M08 A3021 RMK AO2 SLP228 T00831078 (DH)","FM-15","7",,,,,,,,,,,,,,,,,,,,,,,,,,,"2006-10-05"
"72509014739","2020-05-13T08:54:00","FM-15","7",,"ESE","2.6","mi","SNOW","20",,"SNOWBOARD, SNOW RULER","42.3517","-70.9606","MWRA DEER ISLAND TREATMENT PLANT",,,,,,,,,,,,,,,,,,,,,,,,,,,,"30.20","16","49","0.00",,,,"27","30.19","FEW:02 50","30.17","10.00","37","310","30","17",,,,,,,,,,,,,,,,,,,,,,,,,,,,,,,,,,,,,"MET12005/13/20 08:54:02 METAR KBOS 131354Z 31015G26KT 10SM FEW050 09/M09 A3020 RMK AO2 PK WND 27026/1350 SLP224 T00941089 (DH)","FM-15","7",,,,,,,,,,,,,,,,,,,,,,,,,,,"2006-10-05"
"72509014739","2020-05-13T09:54:00","FM-15","7",,"ESE","2.6","mi","SNOW","20",,"SNOWBOARD, SNOW RULER","42.3517","-70.9606","MWRA DEER ISLAND TREATMENT PLANT",,,,,,,,,,,,,,,,,,,,,,,,,,,,"30.19","19","51","0.00",,"+0.02","8","28","30.19","FEW:02 55","30.16","10.00","39","300","25","15",,,,,,,,,,,,,,,,,,,,,,,,,,,,,,,,,,,,,"MET10805/13/20 09:54:02 METAR KBOS 131454Z 30013G22KT 10SM FEW055 11/M07 A3019 RMK AO2 SLP222 T01061072 58006 (DH)","FM-15","7",,,,,,,,,,,,,,,,,,,,,,,,,,,"2006-10-05"
"72509014739","2020-05-13T10:00:00","FM-12","4",,"ESE","2.6","mi","SNOW","20",,"SNOWBOARD, SNOW RULER","42.3517","-70.9606","MWRA DEER ISLAND TREATMENT PLANT",,,,,,,,,,,,,,,,,,,,,,,,,,,,,"19","51",,,"+0.02","8","28","30.19","57","30.17","9.94","39","300",,"15",,,,,,,,,,,,,,,,,,,,,,,,,,,,,,,,,,,,,"SYN07472509 32766 23013 10106 21072 30216 40222 58006 91454 333 91022 555 91315=","FM-12","4",,,,,,,,,,,,,,,,,,,,,,,,,,,"2006-10-05"
"72509014739","2020-05-13T10:54:00","FM-15","7",,"ESE","2.6","mi","SNOW","20",,"SNOWBOARD, SNOW RULER","42.3517","-70.9606","MWRA DEER ISLAND TREATMENT PLANT",,,,,,,,,,,,,,,,,,,,,,,,,,,,"30.18","19","53","0.00",,,,"26","30.18","FEW:02 60","30.15","10.00","40","300","25","10",,,,,,,,,,,,,,,,,,,,,,,,,,,,,,,,,,,,,"MET10205/13/20 10:54:02 METAR KBOS 131554Z 30009G22KT 10SM FEW060 12/M07 A3018 RMK AO2 SLP219 T01171072 (DH)","FM-15","7",,,,,,,,,,,,,,,,,,,,,,,,,,,"2006-10-05"
"72509014739","2020-05-13T11:54:00","FM-15","7",,"ESE","2.6","mi","SNOW","20",,"SNOWBOARD, SNOW RULER","42.3517","-70.9606","MWRA DEER ISLAND TREATMENT PLANT",,,,,,,,,,,,,,,,,,,,,,,,,,,,"30.16","19","55","0.00",,,,"24","30.16","FEW:02 60 FEW:02 200","30.13","10.00","41","290","28","15",,,,,,,,,,,,,,,,,,,,,,,,,,,,,,,,,,,,,"MET10905/13/20 11:54:02 METAR KBOS 131654Z 29013G24KT 10SM FEW060 FEW200 13/M07 A3016 RMK AO2 SLP212 T01281072 (DH)","FM-15","7",,,,,,,,,,,,,,,,,,,,,,,,,,,"2006-10-05"
"72509014739","2020-05-13T12:54:00","FM-15","7",,"ESE","2.6","mi","SNOW","20",,"SNOWBOARD, SNOW RULER","42.3517","-70.9606","MWRA DEER ISLAND TREATMENT PLANT",,,,,,,,,,,,,,,,,,,,,,,,,,,,"30.14","19","56","0.00",,"+0.05","8","24","30.14","FEW:02 70","30.11","10.00","41","280","24","14",,,,,,,,,,,,,,,,,,,,,,,,,,,,,,,,,,,,,"MET13805/13/20 12:54:02 METAR KBOS 131754Z 28012G21KT 10SM FEW070 13/M07 A3014 RMK AO2 PK WND 27027/1724 SLP206 T01331072 10133 20067 58016 (DH)","FM-15","7",,,,,,,,,,,,,,,,,,,,,,,,,,,"2006-10-05"
"72509014739","2020-05-13T13:00:00","FM-12","4",,"ESE","2.6","mi","SNOW","20",,"SNOWBOARD, SNOW RULER","42.3517","-70.9606","MWRA DEER ISLAND TREATMENT PLANT",,,,,,,,,,,,,,,,,,,,,,,,,,,,,"19","56",,,"+0.05","8","24","30.14","74","30.12","9.94","41","280",,"14",,,,,,,,,,,,,,,,,,,,,,,,,,,,,,,,,,,,,"SYN08672509 32866 22812 10133 21072 30199 40206 58016 91754 333 10133 20067 91021 555 91318=","FM-12","4",,,,,,,,,,,,,,,,,,,,,,,,,,,"2006-10-05"
"72509014739","2020-05-13T13:54:00","FM-15","7",,"ESE","2.6","mi","SNOW","20",,"SNOWBOARD, SNOW RULER","42.3517","-70.9606","MWRA DEER ISLAND TREATMENT PLANT",,,,,,,,,,,,,,,,,,,,,,,,,,,,"30.13","19","58","0.00",,,,"22","30.13","FEW:02 70","30.10","10.00","42","280","25","18",,,,,,,,,,,,,,,,,,,,,,,,,,,,,,,,,,,,,"MET12105/13/20 13:54:02 METAR KBOS 131854Z 28016G22KT 10SM FEW070 14/M07 A3013 RMK AO2 PK WND 27030/1835 SLP202 T01441072 (JJF)","FM-15","7",,,,,,,,,,,,,,,,,,,,,,,,,,,"2006-10-05"
"72509014739","2020-05-13T14:54:00","FM-15","7",,"ESE","2.6","mi","SNOW","20",,"SNOWBOARD, SNOW RULER","42.3517","-70.9606","MWRA DEER ISLAND TREATMENT PLANT",,,,,,,,,,,,,,,,,,,,,,,,,,,,"30.13","19","58","0.00",,,,"22","30.12","FEW:02 75","30.10","10.00","42","310","29","16",,,,,,,,,,,,,,,,,,,,,,,,,,,,,,,,,,,,,"MET10305/13/20 14:54:02 METAR KBOS 131954Z 31014G25KT 10SM FEW075 14/M07 A3013 RMK AO2 SLP201 T01441072 (JJF)","FM-15","7",,,,,,,,,,,,,,,,,,,,,,,,,,,"2006-10-05"
"72509014739","2020-05-13T15:54:00","FM-15","7",,"ESE","2.6","mi","SNOW","20",,"SNOWBOARD, SNOW RULER","42.3517","-70.9606","MWRA DEER ISLAND TREATMENT PLANT",,,,,,,,,,,,,,,,,,,,,,,,,,,,"30.12","18","58","0.00",,"+0.02","6","21","30.12","FEW:02 75","30.09","10.00","42","290","26","21",,,,,,,,,,,,,,,,,,,,,,,,,,,,,,,,,,,,,"MET12705/13/20 15:54:02 METAR KBOS 132054Z 29018G23KT 10SM FEW075 14/M08 A3012 RMK AO2 PK WND 30029/2024 SLP200 T01441078 56007 (JJF)","FM-15","7",,,,,,,,,,,,,,,,,,,,,,,,,,,"2006-10-05"
"72509014739","2020-05-13T16:00:00","FM-12","4",,"ESE","2.6","mi","SNOW","20",,"SNOWBOARD, SNOW RULER","42.3517","-70.9606","MWRA DEER ISLAND TREATMENT PLANT",,,,,,,,,,,,,,,,,,,,,,,,,,,,,"18","58",,,"+0.02","6","21","30.12","74","30.10","9.94","42","290",,"21",,,,,,,,,,,,,,,,,,,,,,,,,,,,,,,,,,,,,"SYN07472509 32866 22918 10144 21078 30192 40200 56007 92054 333 91023 555 91321=","FM-12","4",,,,,,,,,,,,,,,,,,,,,,,,,,,"2006-10-05"
"72509014739","2020-05-13T16:54:00","FM-15","7",,"ESE","2.6","mi","SNOW","20",,"SNOWBOARD, SNOW RULER","42.3517","-70.9606","MWRA DEER ISLAND TREATMENT PLANT",,,,,,,,,,,,,,,,,,,,,,,,,,,,"30.13","16","59","0.00",,,,"18","30.13","FEW:02 80","30.10","10.00","42","310","28","15",,,,,,,,,,,,,,,,,,,,,,,,,,,,,,,,,,,,,"MET12105/13/20 16:54:02 METAR KBOS 132154Z 31013G24KT 10SM FEW080 15/M09 A3013 RMK AO2 PK WND 30027/2128 SLP202 T01501089 (JJF)","FM-15","7",,,,,,,,,,,,,,,,,,,,,,,,,,,"2006-10-05"
"72509014739","2020-05-13T17:54:00","FM-15","7",,"ESE","2.6","mi","SNOW","20",,"SNOWBOARD, SNOW RULER","42.3517","-70.9606","MWRA DEER ISLAND TREATMENT PLANT",,,,,,,,,,,,,,,,,,,,,,,,,,,,"30.14","15","57","0.00",,,,"19","30.14","FEW:02 80 FEW:02 250","30.11","10.00","41","300","23","14",,,,,,,,,,,,,,,,,,,,,,,,,,,,,,,,,,,,,"MET11005/13/20 17:54:02 METAR KBOS 132254Z 30012G20KT 10SM FEW080 FEW250 14/M09 A3014 RMK AO2 SLP206 T01391094 (JJF)","FM-15","7",,,,,,,,,,,,,,,,,,,,,,,,,,,"2006-10-05"
"72509014739","2020-05-13T18:54:00","FM-15","7",,"ESE","2.6","mi","SNOW","20",,"SNOWBOARD, SNOW RULER","42.3517","-70.9606","MWRA DEER ISLAND TREATMENT PLANT",,,,,,,,,,,,,,,,,,,,,,,,,,,,"30.17","16","56","0.00",,"-0.05","3","21","30.16","FEW:02 250","30.14","10.00","41","310","20","15",,,,,,,,,,,,,,,,,,,,,,,,,,,,,,,,,,,,,"MET12105/13/20 18:54:02 METAR KBOS 132354Z 31013G17KT 10SM FEW250 13/M09 A3017 RMK AO2 SLP215 T01331089 10156 20133 53016 (JJF)","FM-15","7",,,,,,,,,,,,,,,,,,,,,,,,,,,"2006-10-05"
"72509014739","2020-05-13T19:00:00","FM-12","4",,"ESE","2.6","mi","SNOW","20",,"SNOWBOARD, SNOW RULER","42.3517","-70.9606","MWRA DEER ISLAND TREATMENT PLANT",,,,,,,,,,,,,,,,,,,,,,,,,,,,,"16","56",,,"-0.05","3","21","30.16",,"30.15","9.94","41","310",,"15",,,,,,,,,,,,,,,,,,,,,,,,,,,,,,,,,,,,,"SYN08672509 32966 23113 10133 21089 30209 40215 53016 92354 333 10156 20028 91017 555 91400=","FM-12","4",,,,,,,,,,,,,,,,,,,,,,,,,,,"2006-10-05"
"72509014739","2020-05-13T19:54:00","FM-15","7",,"ESE","2.6","mi","SNOW","20",,"SNOWBOARD, SNOW RULER","42.3517","-70.9606","MWRA DEER ISLAND TREATMENT PLANT",,,,,,,,,,,,,,,,,,,,,,,,,,,,"30.19","19","54","0.00",,,,"25","30.19","FEW:02 250","30.16","10.00","40","300",,"9",,,,,,,,,,,,,,,,,,,,,,,,,,,,,,,,,,,,,"MET09405/13/20 19:54:01 METAR KBOS 140054Z 30008KT 10SM FEW250 12/M07 A3019 RMK AO2 SLP224 T01221072","FM-15","7",,,,,,,,,,,,,,,,,,,,,,,,,,,"2006-10-05"
"72509014739","2020-05-13T20:54:00","FM-15","7",,"ESE","2.6","mi","SNOW","20",,"SNOWBOARD, SNOW RULER","42.3517","-70.9606","MWRA DEER ISLAND TREATMENT PLANT",,,,,,,,,,,,,,,,,,,,,,,,,,,,"30.22","19","53","0.00",,,,"26","30.22","FEW:02 250","30.19","10.00","40","310",,"9",,,,,,,,,,,,,,,,,,,,,,,,,,,,,,,,,,,,,"MET09405/13/20 20:54:01 METAR KBOS 140154Z 31008KT 10SM FEW250 12/M07 A3022 RMK AO2 SLP233 T01171072","FM-15","7",,,,,,,,,,,,,,,,,,,,,,,,,,,"2006-10-05"
"72509014739","2020-05-13T21:54:00","FM-15","7",,"ESE","2.6","mi","SNOW","20",,"SNOWBOARD, SNOW RULER","42.3517","-70.9606","MWRA DEER ISLAND TREATMENT PLANT",,,,,,,,,,,,,,,,,,,,,,,,,,,,"30.23","20","51","0.00",,"-0.06","1","29","30.23","CLR:00","30.20","10.00","39","310",,"5",,,,,,,,,,,,,,,,,,,,,,,,,,,,,,,,,,,,,"MET09705/13/20 21:54:01 METAR KBOS 140254Z 31004KT 10SM CLR 11/M07 A3023 RMK AO2 SLP237 T01061067 51021","FM-15","7",,,,,,,,,,,,,,,,,,,,,,,,,,,"2006-10-05"
"72509014739","2020-05-13T22:00:00","FM-12","4",,"ESE","2.6","mi","SNOW","20",,"SNOWBOARD, SNOW RULER","42.3517","-70.9606","MWRA DEER ISLAND TREATMENT PLANT",,,,,,,,,,,,,,,,,,,,,,,,,,,,,"20","51",,,"-0.06","1","29","30.23",,"30.21","9.94","39","310",,"5",,,,,,,,,,,,,,,,,,,,,,,,,,,,,,,,,,,,,"SYN06472509 32966 03104 10106 21067 30229 40237 51021 90254 555 91403=","FM-12","4",,,,,,,,,,,,,,,,,,,,,,,,,,,"2006-10-05"
"72509014739","2020-05-13T22:54:00","FM-15","7",,"ESE","2.6","mi","SNOW","20",,"SNOWBOARD, SNOW RULER","42.3517","-70.9606","MWRA DEER ISLAND TREATMENT PLANT",,,,,,,,,,,,,,,,,,,,,,,,,,,,"30.25","20","51","0.00",,,,"29","30.24","CLR:00","30.22","10.00","39","270",,"9",,,,,,,,,,,,,,,,,,,,,,,,,,,,,,,,,,,,,"MET09105/13/20 22:54:02 METAR KBOS 140354Z 27008KT 10SM CLR 11/M07 A3025 RMK AO2 SLP242 T01061067","FM-15","7",,,,,,,,,,,,,,,,,,,,,,,,,,,"2006-10-05"
"72509014739","2020-05-13T23:54:00","FM-15","7",,"ESE","2.6","mi","SNOW","20",,"SNOWBOARD, SNOW RULER","42.3517","-70.9606","MWRA DEER ISLAND TREATMENT PLANT",,,,,,,,,,,,,,,,,,,,,,,,,,,,"30.25","21","50","0.00",,,,"32","30.25","CLR:00","30.22","10.00","39","260",,"7",,,,,,,,,,,,,,,,,,,,,,,,,,,,,,,,,,,,,"MET10105/13/20 23:54:02 METAR KBOS 140454Z 26006KT 10SM CLR 10/M06 A3025 RMK AO2 SLP243 T01001061 401560028","FM-15","7",,,,,,,,,,,,,,,,,,,,,,,,,,,"2006-10-05"
"72509014739","2020-05-13T23:59:00","SOD  ","6",,"ESE","2.6","mi","SNOW","20",,"SNOWBOARD, SNOW RULER","42.3517","-70.9606","MWRA DEER ISLAND TREATMENT PLANT",,,,,,"20","49","33","30.17","30.11","38","12.7","0","-8.0","16","60","37","270","35","0.00",,"0.0","270","25",,,,,,,,,,,,,,,,,,,,,,,,,,,,,,,,,,,,,,,,,,,,,,,,,,,,,,,,"SOD71824 HR PRECIPITATION (IN): 0.00  24 HR SNOWFALL (IN):0.0  24 HR MAX TEMP (F): 6024 HR MIN TEMP (F): 37AVERAGE STATION PRESSURE:30.115 MINIMUM SEA LEVEL PRESSURE:30.07 TIME OF OCCURRENCE:0013 PEAK WIND SPEED (MPH): 35 PEAK WIND DIR (DEG):270 PEAK WIND TIME (LST):      FASTEST 2MIN SPEED (MPH): 25FASTEST 2MIN DIR (DEG):270 FASTEST 2MIN TIME (LST):     AVERAGE WIND SPEED (MPH):12.7 24 HR AVG TEMP (F): 49DEPART FROM NORMAL: -8  HEATING DEGREE DAYS: 16 COOLING DEGREE DAYS:  0 LATEST DAY MAX TEMP (0700-1900 LST):60  LATEST NIGHT MIN TEMP(1900-0800 LST):37 HOURLY INCREMENTAL PRECIPITATION VALUES (IN):.00 0.00 0.00 0.00 0.00 0.00 0.00 0.00 0.00 0.00 0.00 0.00 0.00 0.00 0.00 0.00 0.00 0.00 0.00 0.00 0.00 0.00 0.00 0.00","SOD  ","6",,,,,,,,,,,,,,,,,,,,,,,,,"0424","1857","2006-10-05"
"72509014739","2020-05-14T00:54:00","FM-15","7",,"ESE","2.6","mi","SNOW","20",,"SNOWBOARD, SNOW RULER","42.3517","-70.9606","MWRA DEER ISLAND TREATMENT PLANT",,,,,,,,,,,,,,,,,,,,,,,,,,,,"30.26","23","48","0.00",,"-0.02","1","37","30.25","CLR:00","30.23","10.00","38","290",,"9",,,,,,,,,,,,,,,,,,,,,,,,,,,,,,,,,,,,,"MET11505/14/20 00:54:02 METAR KBOS 140554Z 29008KT 10SM CLR 09/M05 A3026 RMK AO2 SLP245 T00891050 10133 20089 51008 (ETM)","FM-15","7",,,,,,,,,,,,,,,,,,,,,,,,,,,"2006-10-05"
"72509014739","2020-05-14T01:00:00","FM-12","4",,"ESE","2.6","mi","SNOW","20",,"SNOWBOARD, SNOW RULER","42.3517","-70.9606","MWRA DEER ISLAND TREATMENT PLANT",,,,,,,,,,,,,,,,,,,,,,,,,,,,,"23","48",,,"-0.02","1","37","30.25",,"30.24","9.94","38","290",,"9",,,,,,,,,,,,,,,,,,,,,,,,,,,,,,,,,,,,,"SYN08072509 32966 02908 10089 21050 30239 40245 51008 90554 333 10133 20028 555 91406=","FM-12","4",,,,,,,,,,,,,,,,,,,,,,,,,,,"2006-10-05"
"72509014739","2020-05-14T01:54:00","FM-15","7",,"ESE","2.6","mi","SNOW","20",,"SNOWBOARD, SNOW RULER","42.3517","-70.9606","MWRA DEER ISLAND TREATMENT PLANT",,,,,,,,,,,,,,,,,,,,,,,,,,,,"30.27","24","48","0.00",,,,"39","30.27","CLR:00","30.24","10.00","39","270",,"13",,,,,,,,,,,,,,,,,,,,,,,,,,,,,,,,,,,,,"MET09705/14/20 01:54:02 METAR KBOS 140654Z 27011KT 10SM CLR 09/M04 A3027 RMK AO2 SLP250 T00891044 (ETM)","FM-15","7",,,,,,,,,,,,,,,,,,,,,,,,,,,"2006-10-05"
"72509014739","2020-05-14T02:54:00","FM-15","7",,"ESE","2.6","mi","SNOW","20",,"SNOWBOARD, SNOW RULER","42.3517","-70.9606","MWRA DEER ISLAND TREATMENT PLANT",,,,,,,,,,,,,,,,,,,,,,,,,,,,"30.27","23","46","0.00",,,,"40","30.27","CLR:00","30.24","10.00","37","290",,"11",,,,,,,,,,,,,,,,,,,,,,,,,,,,,,,,,,,,,"MET09705/14/20 02:54:02 METAR KBOS 140754Z 29010KT 10SM CLR 08/M05 A3027 RMK AO2 SLP250 T00781050 (ETM)","FM-15","7",,,,,,,,,,,,,,,,,,,,,,,,,,,"2006-10-05"
"72509014739","2020-05-14T03:54:00","FM-15","7",,"ESE","2.6","mi","SNOW","20",,"SNOWBOARD, SNOW RULER","42.3517","-70.9606","MWRA DEER ISLAND TREATMENT PLANT",,,,,,,,,,,,,,,,,,,,,,,,,,,,"30.28","24","46","0.00",,"-0.02","1","42","30.27","FEW:02 250","30.25","10.00","37","290",,"9",,,,,,,,,,,,,,,,,,,,,,,,,,,,,,,,,,,,,"MET10605/14/20 03:54:02 METAR KBOS 140854Z 29008KT 10SM FEW250 08/M04 A3028 RMK AO2 SLP252 T00781044 51007 (ETM)","FM-15","7",,,,,,,,,,,,,,,,,,,,,,,,,,,"2006-10-05"
"72509014739","2020-05-14T04:00:00","FM-12","4",,"ESE","2.6","mi","SNOW","20",,"SNOWBOARD, SNOW RULER","42.3517","-70.9606","MWRA DEER ISLAND TREATMENT PLANT",,,,,,,,,,,,,,,,,,,,,,,,,,,,,"24","46",,,"-0.02","1","42","30.27",,"30.26","9.94","37","290",,"9",,,,,,,,,,,,,,,,,,,,,,,,,,,,,,,,,,,,,"SYN06472509 32966 22908 10078 21044 30246 40252 51007 90854 555 91409=","FM-12","4",,,,,,,,,,,,,,,,,,,,,,,,,,,"2006-10-05"
"72509014739","2020-05-14T04:54:00","FM-15","7",,"ESE","2.6","mi","SNOW","20",,"SNOWBOARD, SNOW RULER","42.3517","-70.9606","MWRA DEER ISLAND TREATMENT PLANT",,,,,,,,,,,,,,,,,,,,,,,,,,,,"30.27","24","46","0.00",,,,"42","30.27","FEW:02 250","30.24","10.00","37","280",,"8",,,,,,,,,,,,,,,,,,,,,,,,,,,,,,,,,,,,,"MET09905/14/20 04:54:02 METAR KBOS 140954Z 28007KT 10SM FEW250 08/M04 A3027 RMK AO2 SLP251 T00781044 (DH)","FM-15","7",,,,,,,,,,,,,,,,,,,,,,,,,,,"2006-10-05"
"72509014739","2020-05-14T05:54:00","FM-15","7",,"ESE","2.6","mi","SNOW","20",,"SNOWBOARD, SNOW RULER","42.3517","-70.9606","MWRA DEER ISLAND TREATMENT PLANT",,,,,,,,,,,,,,,,,,,,,,,,,,,,"30.30","25","48","0.00",,,,"41","30.30","FEW:02 250","30.27","10.00","39","290",,"10",,,,,,,,,,,,,,,,,,,,,,,,,,,,,,,,,,,,,"MET09905/14/20 05:54:02 METAR KBOS 141054Z 29009KT 10SM FEW250 09/M04 A3030 RMK AO2 SLP260 T00891039 (DH)","FM-15","7",,,,,,,,,,,,,,,,,,,,,,,,,,,"2006-10-05"
"72509014739","2020-05-14T06:54:00","FM-15","7",,"ESE","2.6","mi","SNOW","20",,"SNOWBOARD, SNOW RULER","42.3517","-70.9606","MWRA DEER ISLAND TREATMENT PLANT",,,,,,,,,,,,,,,,,,,,,,,,,,,,"30.30","25","51","0.00",,"-0.02","2","36","30.29","FEW:02 250","30.27","10.00","40","280",,"9",,,,,,,,,,,,,,,,,,,,,,,,,,,,,,,,,,,,,"MET11705/14/20 06:54:02 METAR KBOS 141154Z 28008KT 10SM FEW250 11/M04 A3030 RMK AO2 SLP259 T01061039 10106 20072 52007 (DH)","FM-15","7",,,,,,,,,,,,,,,,,,,,,,,,,,,"2006-10-05"
"72509014739","2020-05-14T07:00:00","FM-12","4",,"ESE","2.6","mi","SNOW","20",,"SNOWBOARD, SNOW RULER","42.3517","-70.9606","MWRA DEER ISLAND TREATMENT PLANT",,,,,,,,,,,,,,,,,,,,,,,,,,,,,"25","51",,,"-0.02","2","36","30.29",,"30.28","9.94","40","280",,"9",,,,,,,,,,,,,,,,,,,,,,,,,,,,,,,,,,,,,"SYN08072509 32966 22808 10106 21039 30253 40259 52007 91154 333 10156 20072 555 91412=","FM-12","4",,,,,,,,,,,,,,,,,,,,,,,,,,,"2006-10-05"
"72509014739","2020-05-14T07:54:00","FM-15","7",,"ESE","2.6","mi","SNOW","20",,"SNOWBOARD, SNOW RULER","42.3517","-70.9606","MWRA DEER ISLAND TREATMENT PLANT",,,,,,,,,,,,,,,,,,,,,,,,,,,,"30.29","25","55","0.00",,,,"31","30.29","FEW:02 250","30.26","10.00","43","260",,"9",,,,,,,,,,,,,,,,,,,,,,,,,,,,,,,,,,,,,"MET09905/14/20 07:54:02 METAR KBOS 141254Z 26008KT 10SM FEW250 13/M04 A3029 RMK AO2 SLP258 T01281039 (DH)","FM-15","7",,,,,,,,,,,,,,,,,,,,,,,,,,,"2006-10-05"
"72509014739","2020-05-14T08:54:00","FM-15","7",,"ESE","2.6","mi","SNOW","20",,"SNOWBOARD, SNOW RULER","42.3517","-70.9606","MWRA DEER ISLAND TREATMENT PLANT",,,,,,,,,,,,,,,,,,,,,,,,,,,,"30.29","24","58","0.00",,,,"27","30.28","FEW:02 250","30.26","10.00","44","270",,"9",,,,,,,,,,,,,,,,,,,,,,,,,,,,,,,,,,,,,"MET09905/14/20 08:54:02 METAR KBOS 141354Z 27008KT 10SM FEW250 14/M04 A3029 RMK AO2 SLP255 T01441044 (DH)","FM-15","7",,,,,,,,,,,,,,,,,,,,,,,,,,,"2006-10-05"
"72509014739","2020-05-14T09:54:00","FM-15","7",,"ESE","2.6","mi","SNOW","20",,"SNOWBOARD, SNOW RULER","42.3517","-70.9606","MWRA DEER ISLAND TREATMENT PLANT",,,,,,,,,,,,,,,,,,,,,,,,,,,,"30.26","23","61","0.00",,"+0.04","8","23","30.26","BKN:07 250","30.23","10.00","45","250",,"9",,,,,,,,,,,,,,,,,,,,,,,,,,,,,,,,,,,,,"MET10505/14/20 09:54:02 METAR KBOS 141454Z 25008KT 10SM BKN250 16/M05 A3026 RMK AO2 SLP247 T01611050 58012 (DH)","FM-15","7",,,,,,,,,,,,,,,,,,,,,,,,,,,"2006-10-05"
"72509014739","2020-05-14T10:00:00","FM-12","4",,"ESE","2.6","mi","SNOW","20",,"SNOWBOARD, SNOW RULER","42.3517","-70.9606","MWRA DEER ISLAND TREATMENT PLANT",,,,,,,,,,,,,,,,,,,,,,,,,,,,,"23","61",,,"+0.04","8","23","30.26",,"30.24","9.94","45","250",,"9",,,,,,,,,,,,,,,,,,,,,,,,,,,,,,,,,,,,,"SYN06472509 32966 62508 10161 21050 30239 40247 58012 91454 555 91415=","FM-12","4",,,,,,,,,,,,,,,,,,,,,,,,,,,"2006-10-05"
"72509014739","2020-05-14T10:54:00","FM-15","7",,"ESE","2.6","mi","SNOW","20",,"SNOWBOARD, SNOW RULER","42.3517","-70.9606","MWRA DEER ISLAND TREATMENT PLANT",,,,,,,,,,,,,,,,,,,,,,,,,,,,"30.24","23","63","0.00",,,,"22","30.23","FEW:02 250","30.21","10.00","46","260",,"11",,,,,,,,,,,,,,,,,,,,,,,,,,,,,,,,,,,,,"MET09905/14/20 10:54:02 METAR KBOS 141554Z 26010KT 10SM FEW250 17/M05 A3024 RMK AO2 SLP238 T01721050 (DH)","FM-15","7",,,,,,,,,,,,,,,,,,,,,,,,,,,"2006-10-05"
"72509014739","2020-05-14T11:54:00","FM-15","7",,"ESE","2.6","mi","SNOW","20",,"SNOWBOARD, SNOW RULER","42.3517","-70.9606","MWRA DEER ISLAND TREATMENT PLANT",,,,,,,,,,,,,,,,,,,,,,,,,,,,"30.20","23","65","0.00",,,,"20","30.20","FEW:02 250","30.17","10.00","47","230","20","8",,,,,,,,,,,,,,,,,,,,,,,,,,,,,,,,,,,,,"MET10205/14/20 11:54:02 METAR KBOS 141654Z 23007G17KT 10SM FEW250 18/M05 A3020 RMK AO2 SLP226 T01831050 (DH)","FM-15","7",,,,,,,,,,,,,,,,,,,,,,,,,,,"2006-10-05"
"72509014739","2020-05-14T12:54:00","FM-15","7",,"ESE","2.6","mi","SNOW","20",,"SNOWBOARD, SNOW RULER","42.3517","-70.9606","MWRA DEER ISLAND TREATMENT PLANT",,,,,,,,,,,,,,,,,,,,,,,,,,,,"30.16","21","66","0.00",,"+0.10","8","18","30.16","FEW:02 250","30.13","10.00","47","280","20","13",,,,,,,,,,,,,,,,,,,,,,,,,,,,,,,,,,,,,"MET12005/14/20 12:54:02 METAR KBOS 141754Z 28011G17KT 10SM FEW250 19/M06 A3016 RMK AO2 SLP212 T01891061 10194 20106 58035 (DH)","FM-15","7",,,,,,,,,,,,,,,,,,,,,,,,,,,"2006-10-05"
"72509014739","2020-05-14T13:00:00","FM-12","4",,"ESE","2.6","mi","SNOW","20",,"SNOWBOARD, SNOW RULER","42.3517","-70.9606","MWRA DEER ISLAND TREATMENT PLANT",,,,,,,,,,,,,,,,,,,,,,,,,,,,,"21","66",,,"+0.10","8","18","30.16",,"30.14","9.94","47","280",,"13",,,,,,,,,,,,,,,,,,,,,,,,,,,,,,,,,,,,,"SYN08672509 32966 22811 10189 21061 30206 40212 58035 91754 333 10194 20106 91017 555 91418=","FM-12","4",,,,,,,,,,,,,,,,,,,,,,,,,,,"2006-10-05"
"72509014739","2020-05-14T13:54:00","FM-15","7",,"ESE","2.6","mi","SNOW","20",,"SNOWBOARD, SNOW RULER","42.3517","-70.9606","MWRA DEER ISLAND TREATMENT PLANT",,,,,,,,,,,,,,,,,,,,,,,,,,,,"30.13","22","68","0.00",,,,"17","30.12","FEW:02 250","30.10","10.00","48","260","24","16",,,,,,,,,,,,,,,,,,,,,,,,,,,,,,,,,,,,,"MET10305/14/20 13:54:02 METAR KBOS 141854Z 26014G21KT 10SM FEW250 20/M06 A3013 RMK AO2 SLP201 T02001056 (HGC)","FM-15","7",,,,,,,,,,,,,,,,,,,,,,,,,,,"2006-10-05"
"72509014739","2020-05-14T14:54:00","FM-15","7",,"ESE","2.6","mi","SNOW","20",,"SNOWBOARD, SNOW RULER","42.3517","-70.9606","MWRA DEER ISLAND TREATMENT PLANT",,,,,,,,,,,,,,,,,,,,,,,,,,,,"30.10","18","69","0.00",,,,"14","30.09","FEW:02 170 FEW:02 250","30.07","10.00","48","260",,"8",,,,,,,,,,,,,,,,,,,,,,,,,,,,,,,,,,,,,"MET10705/14/20 14:54:02 METAR KBOS 141954Z 26007KT 10SM FEW170 FEW250 21/M08 A3010 RMK AO2 SLP190 T02061078 (HGC)","FM-15","7",,,,,,,,,,,,,,,,,,,,,,,,,,,"2006-10-05"
"72509014739","2020-05-14T15:54:00","FM-15","7",,"ESE","2.6","mi","SNOW","20",,"SNOWBOARD, SNOW RULER","42.3517","-70.9606","MWRA DEER ISLAND TREATMENT PLANT",,,,,,,,,,,,,,,,,,,,,,,,,,,,"30.08","20","69","0.00",,"+0.08","6","15","30.07","FEW:02 170 BKN:07 250","30.05","10.00","48","270","21","15",,,,,,,,,,,,,,,,,,,,,,,,,,,,,,,,,,,,,"MET11605/14/20 15:54:02 METAR KBOS 142054Z 27013G18KT 10SM FEW170 BKN250 21/M07 A3008 RMK AO2 SLP184 T02061067 56028 (HGC)","FM-15","7",,,,,,,,,,,,,,,,,,,,,,,,,,,"2006-10-05"
"72509014739","2020-05-14T16:00:00","FM-12","4",,"ESE","2.6","mi","SNOW","20",,"SNOWBOARD, SNOW RULER","42.3517","-70.9606","MWRA DEER ISLAND TREATMENT PLANT",,,,,,,,,,,,,,,,,,,,,,,,,,,,,"20","69",,,"+0.08","6","15","30.07",,"30.06","9.94","48","270",,"15",,,,,,,,,,,,,,,,,,,,,,,,,,,,,,,,,,,,,"SYN07472509 32966 62713 10206 21067 30179 40184 56028 92054 333 91018 555 91421=","FM-12","4",,,,,,,,,,,,,,,,,,,,,,,,,,,"2006-10-05"
"72509014739","2020-05-14T16:54:00","FM-15","7",,"ESE","2.6","mi","SNOW","20",,"SNOWBOARD, SNOW RULER","42.3517","-70.9606","MWRA DEER ISLAND TREATMENT PLANT",,,,,,,,,,,,,,,,,,,,,,,,,,,,"30.06","21","69","0.00",,,,"16","30.06","FEW:02 90 FEW:02 170 BKN:07 250","30.03","10.00","48","250",,"11",,,,,,,,,,,,,,,,,,,,,,,,,,,,,,,,,,,,,"MET11405/14/20 16:54:02 METAR KBOS 142154Z 25010KT 10SM FEW090 FEW170 BKN250 21/M06 A3006 RMK AO2 SLP179 T02061061 (HGC)","FM-15","7",,,,,,,,,,,,,,,,,,,,,,,,,,,"2006-10-05"
"72509014739","2020-05-14T17:54:00","FM-15","7",,"ESE","2.6","mi","SNOW","20",,"SNOWBOARD, SNOW RULER","42.3517","-70.9606","MWRA DEER ISLAND TREATMENT PLANT",,,,,,,,,,,,,,,,,,,,,,,,,,,,"30.05","22","68","0.00",,,,"17","30.05","FEW:02 90 FEW:02 170 SCT:04 250","30.02","10.00","48","240",,"8",,,,,,,,,,,,,,,,,,,,,,,,,,,,,,,,,,,,,"MET11405/14/20 17:54:02 METAR KBOS 142254Z 24007KT 10SM FEW090 FEW170 SCT250 20/M06 A3005 RMK AO2 SLP176 T02001056 (HGC)","FM-15","7",,,,,,,,,,,,,,,,,,,,,,,,,,,"2006-10-05"
"72509014739","2020-05-14T18:54:00","FM-15","7",,"ESE","2.6","mi","SNOW","20",,"SNOWBOARD, SNOW RULER","42.3517","-70.9606","MWRA DEER ISLAND TREATMENT PLANT",,,,,,,,,,,,,,,,,,,,,,,,,,,,"30.06","33","62","0.00",,"+0.01","5","34","30.06","FEW:02 90 SCT:04 170 BKN:07 250","30.03","10.00","48","200",,"10",,,,,,,,,,,,,,,,,,,,,,,,,,,,,,,,,,,,,"MET13105/14/20 18:54:02 METAR KBOS 142354Z 20009KT 10SM FEW090 SCT170 BKN250 17/01 A3006 RMK AO2 SLP179 T01670006 10206 20161 55005 (HGC)","FM-15","7",,,,,,,,,,,,,,,,,,,,,,,,,,,"2006-10-05"
"72509014739","2020-05-14T19:00:00","FM-12","4",,"ESE","2.6","mi","SNOW","20",,"SNOWBOARD, SNOW RULER","42.3517","-70.9606","MWRA DEER ISLAND TREATMENT PLANT",,,,,,,,,,,,,,,,,,,,,,,,,,,,,"33","62",,,"+0.01","5","34","30.06",,"30.04","9.94","48","200",,"10",,,,,,,,,,,,,,,,,,,,,,,,,,,,,,,,,,,,,"SYN08072509 32966 62009 10167 20006 30172 40179 55005 92354 333 10206 20072 555 91500=","FM-12","4",,,,,,,,,,,,,,,,,,,,,,,,,,,"2006-10-05"
"72509014739","2020-05-14T19:54:00","FM-15","7",,"ESE","2.6","mi","SNOW","20",,"SNOWBOARD, SNOW RULER","42.3517","-70.9606","MWRA DEER ISLAND TREATMENT PLANT",,,,,,,,,,,,,,,,,,,,,,,,,,,,"30.07","31","62","0.00",,,,"31","30.07","FEW:02 90 SCT:04 170 SCT:04 250","30.04","10.00","48","210",,"14",,,,,,,,,,,,,,,,,,,,,,,,,,,,,,,,,,,,,"MET10805/14/20 19:54:01 METAR KBOS 150054Z 21012KT 10SM FEW090 SCT170 SCT250 17/M01 A3007 RMK AO2 SLP182 T01671006","FM-15","7",,,,,,,,,,,,,,,,,,,,,,,,,,,"2006-10-05"
"72509014739","2020-05-14T20:54:00","FM-15","7",,"ESE","2.6","mi","SNOW","20",,"SNOWBOARD, SNOW RULER","42.3517","-70.9606","MWRA DEER ISLAND TREATMENT PLANT",,,,,,,,,,,,,,,,,,,,,,,,,,,,"30.08","32","60","0.00",,,,"35","30.08","BKN:07 110 OVC:08 250","30.05","10.00","47","220",,"13",,,,,,,,,,,,,,,,,,,,,,,,,,,,,,,,,,,,,"MET10005/14/20 20:54:01 METAR KBOS 150154Z 22011KT 10SM BKN110 OVC250 16/00 A3008 RMK AO2 SLP185 T01560000","FM-15","7",,,,,,,,,,,,,,,,,,,,,,,,,,,"2006-10-05"
"72509014739","2020-05-14T21:54:00","FM-15","7",,"ESE","2.6","mi","SNOW","20",,"SNOWBOARD, SNOW RULER","42.3517","-70.9606","MWRA DEER ISLAND TREATMENT PLANT",,,,,,,,,,,,,,,,,,,,,,,,,,,,"30.07","34","60","0.00",,"-0.01","0","38","30.07","OVC:08 110","30.04","10.00","48","230",,"14",,,,,,,,,,,,,,,,,,,,,,,,,,,,,,,,,,,,,"MET09905/14/20 21:54:01 METAR KBOS 150254Z 23012KT 10SM OVC110 16/01 A3007 RMK AO2 SLP182 T01560011 50003","FM-15","7",,,,,,,,,,,,,,,,,,,,,,,,,,,"2006-10-05"
"72509014739","2020-05-14T22:00:00","FM-12","4",,"ESE","2.6","mi","SNOW","20",,"SNOWBOARD, SNOW RULER","42.3517","-70.9606","MWRA DEER ISLAND TREATMENT PLANT",,,,,,,,,,,,,,,,,,,,,,,,,,,,,"34","60",,,"0.01","9","38","30.07",,"30.05","9.94","48","230",,"14",,,,,,,,,,,,,,,,,,,,,,,,,,,,,,,,,,,,,"SYN06472509 32966 82312 10156 20011 30175 40182 50003 90254 555 91503=","FM-12","4",,,,,,,,,,,,,,,,,,,,,,,,,,,"2006-10-05"
"72509014739","2020-05-14T22:54:00","FM-15","7",,"ESE","2.6","mi","SNOW","20",,"SNOWBOARD, SNOW RULER","42.3517","-70.9606","MWRA DEER ISLAND TREATMENT PLANT",,,,,,,,,,,,,,,,,,,,,,,,,,,,"30.06","37","60","0.00",,,,"42","30.05","OVC:08 100","30.03","10.00","49","230",,"14",,,,,,,,,,,,,,,,,,,,,,,,,,,,,,,,,,,,,"MET09305/14/20 22:54:02 METAR KBOS 150354Z 23012KT 10SM OVC100 16/03 A3006 RMK AO2 SLP177 T01560028","FM-15","7",,,,,,,,,,,,,,,,,,,,,,,,,,,"2006-10-05"
"72509014739","2020-05-14T23:54:00","FM-15","7",,"ESE","2.6","mi","SNOW","20",,"SNOWBOARD, SNOW RULER","42.3517","-70.9606","MWRA DEER ISLAND TREATMENT PLANT",,,,,,,,,,,,,,,,,,,,,,,,,,,,"30.05","40","59","0.00",,,,"49","30.05","OVC:08 100","30.02","10.00","50","230",,"13",,,,,,,,,,,,,,,,,,,,,,,,,,,,,,,,,,,,,"MET10305/14/20 23:54:02 METAR KBOS 150454Z 23011KT 10SM OVC100 15/04 A3005 RMK AO2 SLP176 T01500044 402060072","FM-15","7",,,,,,,,,,,,,,,,,,,,,,,,,,,"2006-10-05"
"72509014739","2020-05-14T23:59:00","SOD  ","6",,"ESE","2.6","mi","SNOW","20",,"SNOWBOARD, SNOW RULER","42.3517","-70.9606","MWRA DEER ISLAND TREATMENT PLANT",,,,,,"26","57","30","30.17","30.16","45","11.1","0","-0.3","8","69","45","260","27","0.00",,"0.0","210","20",,,,,,,,,,,,,,,,,,,,,,,,,,,,,,,,,,,,,,,,,,,,,,,,,,,,,,,,"SOD71824 HR PRECIPITATION (IN): 0.00  24 HR SNOWFALL (IN):0.0  24 HR MAX TEMP (F): 6924 HR MIN TEMP (F): 45AVERAGE STATION PRESSURE:30.155 MINIMUM SEA LEVEL PRESSURE:30.05 TIME OF OCCURRENCE:2359 PEAK WIND SPEED (MPH): 27 PEAK WIND DIR (DEG):260 PEAK WIND TIME (LST):      FASTEST 2MIN SPEED (MPH): 20FASTEST 2MIN DIR (DEG):210 FASTEST 2MIN TIME (LST):     AVERAGE WIND SPEED (MPH):11.1 24 HR AVG TEMP (F): 57DEPART FROM NORMAL:  0  HEATING DEGREE DAYS:  8 COOLING DEGREE DAYS:  0 LATEST DAY MAX TEMP (0700-1900 LST):69  LATEST NIGHT MIN TEMP(1900-0800 LST):45 HOURLY INCREMENTAL PRECIPITATION VALUES (IN):.00 0.00 0.00 0.00 0.00 0.00 0.00 0.00 0.00 0.00 0.00 0.00 0.00 0.00 0.00 0.00 0.00 0.00 0.00 0.00 0.00 0.00 0.00 0.00","SOD  ","6",,,,,,,,,,,,,,,,,,,,,,,,,"0423","1858","2006-10-05"
"72509014739","2020-05-15T00:54:00","FM-15","7",,"ESE","2.6","mi","SNOW","20",,"SNOWBOARD, SNOW RULER","42.3517","-70.9606","MWRA DEER ISLAND TREATMENT PLANT",,,,,,,,,,,,,,,,,,,,,,,,,,,,"30.05","44","57","T","-RA:02 |RA |RA","+0.02","6","62","30.04","BKN:07 100 OVC:08 110","30.02","10.00","50","240",,"16",,,,,,,,,,,,,,,,,,,,,,,,,,,,,,,,,,,,,"MET14605/15/20 00:54:02 METAR KBOS 150554Z 24014KT 10SM -RA BKN100 OVC110 14/07 A3005 RMK AO2 RAB39 SLP174 P0000 60000 T01390067 10172 20139 56008 (ETM)","FM-15","7",,,,,,,,,,,,,,,,,,,,,,,,,,,"2006-10-05"
"72509014739","2020-05-15T01:00:00","FM-12","4",,"ESE","2.6","mi","SNOW","20",,"SNOWBOARD, SNOW RULER","42.3517","-70.9606","MWRA DEER ISLAND TREATMENT PLANT",,,,,,,,,,,,,,,,,,,,,,,,,,,,,"44","57",,"||RA","+0.02","6","62","30.04",,"30.03","9.94","50","240",,"16",,,,,,,,,,,,,,,,,,,,,,,,,,,,,,,,,,,,,"SYN09272509 11966 82414 10139 20067 30168 40174 56008 69901 761// 90554 333 10172 20072 555 91506=","FM-12","4",,,,,,,,,,,,,,,,,,,,,,,,,,,"2006-10-05"
"72509014739","2020-05-15T01:54:00","FM-15","7",,"ESE","2.6","mi","SNOW","20",,"SNOWBOARD, SNOW RULER","42.3517","-70.9606","MWRA DEER ISLAND TREATMENT PLANT",,,,,,,,,,,,,,,,,,,,,,,,,,,,"30.04","47","53","0.04","-RA:02 |RA |RA",,,"80","30.03","BKN:07 70 OVC:08 85","30.01","8.00","50","200",,"8",,,,,,,,,,,,,,,,,,,,,,,,,,,,,,,,,,,,,"MET11505/15/20 01:54:02 METAR KBOS 150654Z 20007KT 8SM -RA BKN070 OVC085 12/08 A3004 RMK AO2 SLP171 P0003 T01170083 (ETM)","FM-15","7",,,,,,,,,,,,,,,,,,,,,,,,,,,"2006-10-05"
"72509014739","2020-05-15T02:54:00","FM-15","7",,"ESE","2.6","mi","SNOW","20",,"SNOWBOARD, SNOW RULER","42.3517","-70.9606","MWRA DEER ISLAND TREATMENT PLANT",,,,,,,,,,,,,,,,,,,,,,,,,,,,"30.02","48","52","0.01","-RA:02 |RA |RA",,,"86","30.02","BKN:07 55 OVC:08 90","29.99","10.00","50","180",,"5",,,,,,,,,,,,,,,,,,,,,,,,,,,,,,,,,,,,,"MET11605/15/20 02:54:02 METAR KBOS 150754Z 18004KT 10SM -RA BKN055 OVC090 11/09 A3002 RMK AO2 SLP165 P0002 T01110089 (ETM)","FM-15","7",,,,,,,,,,,,,,,,,,,,,,,,,,,"2006-10-05"
"72509014739","2020-05-15T03:54:00","FM-15","7",,"ESE","2.6","mi","SNOW","20",,"SNOWBOARD, SNOW RULER","42.3517","-70.9606","MWRA DEER ISLAND TREATMENT PLANT",,,,,,,,,,,,,,,,,,,,,,,,,,,,"30.00","50","52","0.01",,"+0.05","8","93","29.99","OVC:08 36","29.97","10.00","51","160",,"5",,,,,,,,,,,,,,,,,,,,,,,,,,,,,,,,,,,,,"MET12305/15/20 03:54:02 METAR KBOS 150854Z 16004KT 10SM OVC036 11/10 A3000 RMK AO2 RAE18 SLP157 P0001 60006 T01110100 58017 (ETM)","FM-15","7",,,,,,,,,,,,,,,,,,,,,,,,,,,"2006-10-05"
"72509014739","2020-05-15T04:00:00","FM-12","4",,"ESE","2.6","mi","SNOW","20",,"SNOWBOARD, SNOW RULER","42.3517","-70.9606","MWRA DEER ISLAND TREATMENT PLANT",,,,,,,,,,,,,,,,,,,,,,,,,,,,,"50","52",,,"+0.05","8","93","29.99","41","29.98","9.94","51","160",,"5",,,,,,,,,,,,,,,,,,,,,,,,,,,,,,,,,,,,,"SYN07072509 12666 81604 10111 20100 30151 40157 58017 60027 90854 555 91509=","FM-12","4",,,,,,,,,,,,,,,,,,,,,,,,,,,"2006-10-05"
"72509014739","2020-05-15T04:54:00","FM-15","7",,"ESE","2.6","mi","SNOW","20",,"SNOWBOARD, SNOW RULER","42.3517","-70.9606","MWRA DEER ISLAND TREATMENT PLANT",,,,,,,,,,,,,,,,,,,,,,,,,,,,"29.99","49","51","0.00",,,,"92","29.98","BKN:07 38 BKN:07 75 BKN:07 100","29.96","10.00","50","140",,"5",,,,,,,,,,,,,,,,,,,,,,,,,,,,,,,,,,,,,"MET11205/15/20 04:54:02 METAR KBOS 150954Z 14004KT 10SM BKN038 BKN075 BKN100 11/09 A2999 RMK AO2 SLP154 T01060094 (DH)","FM-15","7",,,,,,,,,,,,,,,,,,,,,,,,,,,"2006-10-05"
"72509014739","2020-05-15T05:54:00","FM-15","7",,"ESE","2.6","mi","SNOW","20",,"SNOWBOARD, SNOW RULER","42.3517","-70.9606","MWRA DEER ISLAND TREATMENT PLANT",,,,,,,,,,,,,,,,,,,,,,,,,,,,"29.99","50","52","0.00",,,,"93","29.99","BKN:07 65 BKN:07 85","29.96","10.00","51","190",,"7",,,,,,,,,,,,,,,,,,,,,,,,,,,,,,,,,,,,,"MET10505/15/20 05:54:02 METAR KBOS 151054Z 19006KT 10SM BKN065 BKN085 11/10 A2999 RMK AO2 SLP155 T01110100 (DH)","FM-15","7",,,,,,,,,,,,,,,,,,,,,,,,,,,"2006-10-05"
"72509014739","2020-05-15T06:54:00","FM-15","7",,"ESE","2.6","mi","SNOW","20",,"SNOWBOARD, SNOW RULER","42.3517","-70.9606","MWRA DEER ISLAND TREATMENT PLANT",,,,,,,,,,,,,,,,,,,,,,,,,,,,"29.98","52","54","0.00",,"+0.02","8","93","29.98","BKN:07 34 BKN:07 65","29.95","10.00","53","190",,"9",,,,,,,,,,,,,,,,,,,,,,,,,,,,,,,,,,,,,"MET13505/15/20 06:54:02 METAR KBOS 151154Z 19008KT 10SM BKN034 BKN065 12/11 A2998 RMK AO2 SLP151 60006 70006 T01220111 10139 20106 58006 (DH)","FM-15","7",,,,,,,,,,,,,,,,,,,,,,,,,,,"2006-10-05"
"72509014739","2020-05-15T07:00:00","FM-12","4",,"ESE","2.6","mi","SNOW","20",,"SNOWBOARD, SNOW RULER","42.3517","-70.9606","MWRA DEER ISLAND TREATMENT PLANT",,,,,,,,,,,,,,,,,,,,,,,,,,,,,"52","54",,,"+0.02","8","93","29.98","41","29.96","9.94","53","190",,"9",,,,,,,,,,,,,,,,,,,,,,,,,,,,,,,,,,,,,"SYN09272509 12666 61908 10122 20111 30145 40151 58006 60021 91154 333 10206 20106 70015 555 91512=","FM-12","4",,,,,,,,,,,,,,,,,,,,,,,,,,,"2006-10-05"
"72509014739","2020-05-15T07:54:00","FM-15","7",,"ESE","2.6","mi","SNOW","20",,"SNOWBOARD, SNOW RULER","42.3517","-70.9606","MWRA DEER ISLAND TREATMENT PLANT",,,,,,,,,,,,,,,,,,,,,,,,,,,,"29.98","54","58","0.00",,,,"87","29.98","FEW:02 10 BKN:07 42 BKN:07 100","29.95","10.00","56","240",,"9",,,,,,,,,,,,,,,,,,,,,,,,,,,,,,,,,,,,,"MET11205/15/20 07:54:02 METAR KBOS 151254Z 24008KT 10SM FEW010 BKN042 BKN100 14/12 A2998 RMK AO2 SLP151 T01440122 (DH)","FM-15","7",,,,,,,,,,,,,,,,,,,,,,,,,,,"2006-10-05"
"72509014739","2020-05-15T08:54:00","FM-15","7",,"ESE","2.6","mi","SNOW","20",,"SNOWBOARD, SNOW RULER","42.3517","-70.9606","MWRA DEER ISLAND TREATMENT PLANT",,,,,,,,,,,,,,,,,,,,,,,,,,,,"29.96","54","60","0.00",,,,"80","29.96","FEW:02 22 SCT:04 36 BKN:07 90","29.93","10.00","57","190",,"8",,,,,,,,,,,,,,,,,,,,,,,,,,,,,,,,,,,,,"MET11205/15/20 08:54:02 METAR KBOS 151354Z 19007KT 10SM FEW022 SCT036 BKN090 16/12 A2996 RMK AO2 SLP146 T01560122 (DH)","FM-15","7",,,,,,,,,,,,,,,,,,,,,,,,,,,"2006-10-05"
"72509014739","2020-05-15T09:54:00","FM-15","7",,"ESE","2.6","mi","SNOW","20",,"SNOWBOARD, SNOW RULER","42.3517","-70.9606","MWRA DEER ISLAND TREATMENT PLANT",,,,,,,,,,,,,,,,,,,,,,,,,,,,"29.95","55","64","0.00",,"+0.04","8","73","29.94","FEW:02 35 FEW:02 90 FEW:02 250","29.92","10.00","59","VRB",,"5",,,,,,,,,,,,,,,,,,,,,,,,,,,,,,,,,,,,,"MET11805/15/20 09:54:02 METAR KBOS 151454Z VRB04KT 10SM FEW035 FEW090 FEW250 18/13 A2995 RMK AO2 SLP140 T01780128 58012 (DH)","FM-15","7",,,,,,,,,,,,,,,,,,,,,,,,,,,"2006-10-05"
"72509014739","2020-05-15T10:00:00","FM-12","4",,"ESE","2.6","mi","SNOW","20",,"SNOWBOARD, SNOW RULER","42.3517","-70.9606","MWRA DEER ISLAND TREATMENT PLANT",,,,,,,,,,,,,,,,,,,,,,,,,,,,,"55","64",,,"+0.04","8","73","29.94","41","29.93","9.94","59",,,"5",,,,,,,,,,,,,,,,,,,,,,,,,,,,,,,,,,,,,"SYN06472509 32666 2//04 10178 20128 30135 40140 58012 91454 555 91515=","FM-12","4",,,,,,,,,,,,,,,,,,,,,,,,,,,"2006-10-05"
"72509014739","2020-05-15T10:54:00","FM-15","7",,"ESE","2.6","mi","SNOW","20",,"SNOWBOARD, SNOW RULER","42.3517","-70.9606","MWRA DEER ISLAND TREATMENT PLANT",,,,,,,,,,,,,,,,,,,,,,,,,,,,"29.93","56","66","0.00",,,,"70","29.93","FEW:02 27 FEW:02 45 FEW:02 250","29.90","10.00","60","VRB",,"7",,,,,,,,,,,,,,,,,,,,,,,,,,,,,,,,,,,,,"MET11205/15/20 10:54:02 METAR KBOS 151554Z VRB06KT 10SM FEW027 FEW045 FEW250 19/13 A2993 RMK AO2 SLP134 T01890133 (DH)","FM-15","7",,,,,,,,,,,,,,,,,,,,,,,,,,,"2006-10-05"
"72509014739","2020-05-15T11:54:00","FM-15","7",,"ESE","2.6","mi","SNOW","20",,"SNOWBOARD, SNOW RULER","42.3517","-70.9606","MWRA DEER ISLAND TREATMENT PLANT",,,,,,,,,,,,,,,,,,,,,,,,,,,,"29.90","56","68","0.00",,,,"65","29.90","FEW:02 27 FEW:02 250","29.87","10.00","61","130",,"11",,,,,,,,,,,,,,,,,,,,,,,,,,,,,,,,,,,,,"MET10505/15/20 11:54:02 METAR KBOS 151654Z 13010KT 10SM FEW027 FEW250 20/13 A2990 RMK AO2 SLP125 T02000133 (DH)","FM-15","7",,,,,,,,,,,,,,,,,,,,,,,,,,,"2006-10-05"
"72509014739","2020-05-15T12:54:00","FM-15","7",,"ESE","2.6","mi","SNOW","20",,"SNOWBOARD, SNOW RULER","42.3517","-70.9606","MWRA DEER ISLAND TREATMENT PLANT",,,,,,,,,,,,,,,,,,,,,,,,,,,,"29.89","56","68","0.00",,"+0.05","6","65","29.89","BKN:07 33 BKN:07 250","29.86","10.00","61","120",,"13",,,,,,,,,,,,,,,,,,,,,,,,,,,,,,,,,,,,,"MET12405/15/20 12:54:02 METAR KBOS 151754Z 12011KT 10SM BKN033 BKN250 20/13 A2989 RMK AO2 SLP122 T02000133 10206 20122 56017 (HGC)","FM-15","7",,,,,,,,,,,,,,,,,,,,,,,,,,,"2006-10-05"
"72509014739","2020-05-15T13:00:00","FM-12","4",,"ESE","2.6","mi","SNOW","20",,"SNOWBOARD, SNOW RULER","42.3517","-70.9606","MWRA DEER ISLAND TREATMENT PLANT",,,,,,,,,,,,,,,,,,,,,,,,,,,,,"56","68",,,"+0.05","6","65","29.89","26","29.87","9.94","61","120",,"13",,,,,,,,,,,,,,,,,,,,,,,,,,,,,,,,,,,,,"SYN08072509 32566 61211 10200 20133 30114 40122 56017 91754 333 10206 20122 555 91518=","FM-12","4",,,,,,,,,,,,,,,,,,,,,,,,,,,"2006-10-05"
"72509014739","2020-05-15T13:54:00","FM-15","7",,"ESE","2.6","mi","SNOW","20",,"SNOWBOARD, SNOW RULER","42.3517","-70.9606","MWRA DEER ISLAND TREATMENT PLANT",,,,,,,,,,,,,,,,,,,,,,,,,,,,"29.87","55","66","0.00",,,,"68","29.87","BKN:07 45 BKN:07 250","29.84","10.00","60","110",,"17",,,,,,,,,,,,,,,,,,,,,,,,,,,,,,,,,,,,,"MET10605/15/20 13:54:02 METAR KBOS 151854Z 11015KT 10SM BKN045 BKN250 19/13 A2987 RMK AO2 SLP114 T01890128 (HGC)","FM-15","7",,,,,,,,,,,,,,,,,,,,,,,,,,,"2006-10-05"
"72509014739","2020-05-15T14:54:00","FM-15","7",,"ESE","2.6","mi","SNOW","20",,"SNOWBOARD, SNOW RULER","42.3517","-70.9606","MWRA DEER ISLAND TREATMENT PLANT",,,,,,,,,,,,,,,,,,,,,,,,,,,,"29.85","54","64","0.00",,,,"70","29.85","SCT:04 50 BKN:07 170","29.82","10.00","58","110",,"17",,,,,,,,,,,,,,,,,,,,,,,,,,,,,,,,,,,,,"MET10605/15/20 14:54:02 METAR KBOS 151954Z 11015KT 10SM SCT050 BKN170 18/12 A2985 RMK AO2 SLP107 T01780122 (HGC)","FM-15","7",,,,,,,,,,,,,,,,,,,,,,,,,,,"2006-10-05"
"72509014739","2020-05-15T15:54:00","FM-15","7",,"ESE","2.6","mi","SNOW","20",,"SNOWBOARD, SNOW RULER","42.3517","-70.9606","MWRA DEER ISLAND TREATMENT PLANT",,,,,,,,,,,,,,,,,,,,,,,,,,,,"29.81","54","64","0.00",,"+0.08","8","70","29.81","BKN:07 50 BKN:07 170","29.78","10.00","58","110",,"16",,,,,,,,,,,,,,,,,,,,,,,,,,,,,,,,,,,,,"MET11205/15/20 15:54:02 METAR KBOS 152054Z 11014KT 10SM BKN050 BKN170 18/12 A2981 RMK AO2 SLP096 T01780122 58027 (HGC)","FM-15","7",,,,,,,,,,,,,,,,,,,,,,,,,,,"2006-10-05"
"72509014739","2020-05-15T16:00:00","FM-12","4",,"ESE","2.6","mi","SNOW","20",,"SNOWBOARD, SNOW RULER","42.3517","-70.9606","MWRA DEER ISLAND TREATMENT PLANT",,,,,,,,,,,,,,,,,,,,,,,,,,,,,"54","64",,,"+0.08","8","70","29.81","57","29.79","9.94","58","110",,"16",,,,,,,,,,,,,,,,,,,,,,,,,,,,,,,,,,,,,"SYN06472509 32766 61114 10178 20122 30087 40096 58027 92054 555 91521=","FM-12","4",,,,,,,,,,,,,,,,,,,,,,,,,,,"2006-10-05"
"72509014739","2020-05-15T16:54:00","FM-15","7",,"ESE","2.6","mi","SNOW","20",,"SNOWBOARD, SNOW RULER","42.3517","-70.9606","MWRA DEER ISLAND TREATMENT PLANT",,,,,,,,,,,,,,,,,,,,,,,,,,,,"29.79","53","62","0.00",,,,"73","29.79","BKN:07 50 BKN:07 170","29.76","10.00","57","140",,"7",,,,,,,,,,,,,,,,,,,,,,,,,,,,,,,,,,,,,"MET10605/15/20 16:54:02 METAR KBOS 152154Z 14006KT 10SM BKN050 BKN170 17/12 A2979 RMK AO2 SLP088 T01670117 (HGC)","FM-15","7",,,,,,,,,,,,,,,,,,,,,,,,,,,"2006-10-05"
"72509014739","2020-05-15T17:54:00","FM-15","7",,"ESE","2.6","mi","SNOW","20",,"SNOWBOARD, SNOW RULER","42.3517","-70.9606","MWRA DEER ISLAND TREATMENT PLANT",,,,,,,,,,,,,,,,,,,,,,,,,,,,"29.77","57","71","0.00",,,,"61","29.76","FEW:02 45 SCT:04 100","29.74","10.00","63","190",,"13",,,,,,,,,,,,,,,,,,,,,,,,,,,,,,,,,,,,,"MET10605/15/20 17:54:02 METAR KBOS 152254Z 19011KT 10SM FEW045 SCT100 22/14 A2977 RMK AO2 SLP079 T02170139 (HGC)","FM-15","7",,,,,,,,,,,,,,,,,,,,,,,,,,,"2006-10-05"
"72509014739","2020-05-15T18:54:00","FM-15","7",,"ESE","2.6","mi","SNOW","20",,"SNOWBOARD, SNOW RULER","42.3517","-70.9606","MWRA DEER ISLAND TREATMENT PLANT",,,,,,,,,,,,,,,,,,,,,,,,,,,,"29.73","57","69","0.00",,"+0.09","8","66","29.72","FEW:02 45 SCT:04 120 BKN:07 250","29.70","10.00","62","200",,"14",,,,,,,,,,,,,,,,,,,,,,,,,,,,,,,,,,,,,"MET13105/15/20 18:54:02 METAR KBOS 152354Z 20012KT 10SM FEW045 SCT120 BKN250 21/14 A2973 RMK AO2 SLP066 T02060139 10233 20161 58029 (HGC)","FM-15","7",,,,,,,,,,,,,,,,,,,,,,,,,,,"2006-10-05"
"72509014739","2020-05-15T19:00:00","FM-12","4",,"ESE","2.6","mi","SNOW","20",,"SNOWBOARD, SNOW RULER","42.3517","-70.9606","MWRA DEER ISLAND TREATMENT PLANT",,,,,,,,,,,,,,,,,,,,,,,,,,,,,"57","69",,,"+0.09","8","66","29.72","41","29.71","9.94","62","200",,"14",,,,,,,,,,,,,,,,,,,,,,,,,,,,,,,,,,,,,"SYN08072509 32666 62012 10206 20139 30060 40066 58029 92354 333 10233 20106 555 91600=","FM-12","4",,,,,,,,,,,,,,,,,,,,,,,,,,,"2006-10-05"
"72509014739","2020-05-15T19:54:00","FM-15","7",,"ESE","2.6","mi","SNOW","20",,"SNOWBOARD, SNOW RULER","42.3517","-70.9606","MWRA DEER ISLAND TREATMENT PLANT",,,,,,,,,,,,,,,,,,,,,,,,,,,,"29.74","57","70","0.00",,,,"64","29.74","FEW:02 45 BKN:07 130 OVC:08 250","29.71","10.00","62","220","22","15",,,,,,,,,,,,,,,,,,,,,,,,,,,,,,,,,,,,,"MET12805/15/20 19:54:01 METAR KBOS 160054Z 22013G19KT 10SM FEW045 BKN130 OVC250 21/14 A2974 RMK AO2 LTG DSNT W AND NW SLP071 T02110139","FM-15","7",,,,,,,,,,,,,,,,,,,,,,,,,,,"2006-10-05"
"72509014739","2020-05-15T20:08:00","FM-16","7",,"ESE","2.6","mi","SNOW","20",,"SNOWBOARD, SNOW RULER","42.3517","-70.9606","MWRA DEER ISLAND TREATMENT PLANT",,,,,,,,,,,,,,,,,,,,,,,,,,,,"29.83","57","70","T","TS:7 +RA:02 |RA TS TS |RA",,,"64",,"FEW:02 33 SCT:04 80 OVC:08 120","29.80","6.00","62","300","40","26",,,,,,,,,,,,,,,,,,,,,,,,,,,,,,,,,,,,,"MET20305/15/20 20:08:01 SPECI KBOS 160108Z 30023G35KT 6SM +TSRA FEW033CB SCT080 OVC120 21/14 A2983 RMK AO2 PK WND 32035/0105 WSHFT 0051 LTG DSNT W-N RAB04 TSB08 PRESRR OCNL LTGICCC TS NW MOV NE P0000 T02110139","FM-16","7",,,,,,,,,,,,,,,,,,,,,,,,,,,"2006-10-05"
"72509014739","2020-05-15T20:17:00","FM-16","7",,"ESE","2.6","mi","SNOW","20",,"SNOWBOARD, SNOW RULER","42.3517","-70.9606","MWRA DEER ISLAND TREATMENT PLANT",,,,,,,,,,,,,,,,,,,,,,,,,,,,"29.83","56","63","0.07","TS:7 +RA:02 |RA TS TS |RA",,,"78",,"SCT:04 35 BKN:07 75 OVC:08 120","29.80","1.25","59","260","34","21",,,,,,,,,,,,,,,,,,,,,,,,,,,,,,,,,,,,,"MET20605/15/20 20:17:01 SPECI KBOS 160117Z 26018G30KT 1 1/4SM +TSRA SCT035CB BKN075 OVC120 17/13 A2983 RMK AO2 PK WND 32035/0105 WSHFT 0051 LTG DSNT N AND W RAB04 TSB08 OCNL LTGICCC TS NW MOV NE P0007 T01720133 $","FM-16","7",,,,,,,,,,,,,,,,,,,,,,,,,,,"2006-10-05"
"72509014739","2020-05-15T20:23:00","FM-16","7",,"ESE","2.6","mi","SNOW","20",,"SNOWBOARD, SNOW RULER","42.3517","-70.9606","MWRA DEER ISLAND TREATMENT PLANT",,,,,,,,,,,,,,,,,,,,,,,,,,,,"29.82","57","63","0.17","TS:7 RA:02 |RA TS TS |RA",,,"81",,"SCT:04 35 BKN:07 75 OVC:08 120","29.79","2.00","60","250","31","20",,,,,,,,,,,,,,,,,,,,,,,,,,,,,,,,,,,,,"MET19605/15/20 20:23:01 SPECI KBOS 160123Z 25017G27KT 2SM TSRA SCT035CB BKN075 OVC120 17/14 A2982 RMK AO2 PK WND 32035/0105 WSHFT 0051 LTG DSNT W-N RAB04 TSB08 OCNL LTGICCC TS NW MOV E P0017 T01720139 $","FM-16","7",,,,,,,,,,,,,,,,,,,,,,,,,,,"2006-10-05"
"72509014739","2020-05-15T20:32:00","FM-16","7",,"ESE","2.6","mi","SNOW","20",,"SNOWBOARD, SNOW RULER","42.3517","-70.9606","MWRA DEER ISLAND TREATMENT PLANT",,,,,,,,,,,,,,,,,,,,,,,,,,,,"29.82","58","63","0.23","TS:7 +RA:02 |RA TS TS |RA",,,"84",,"FEW:02 35 BKN:07 55 OVC:08 120","29.79","4.00","60","250","30","15",,,,,,,,,,,,,,,,,,,,,,,,,,,,,,,,,,,,,"MET19805/15/20 20:32:01 SPECI KBOS 160132Z 25013G26KT 4SM +TSRA FEW035CB BKN055 OVC120 17/14 A2982 RMK AO2 PK WND 32035/0105 WSHFT 0051 LTG DSNT NW-E RAB04 TSB08 OCNL LTGICCC TS NW MOV E P0023 T01720144 $","FM-16","7",,,,,,,,,,,,,,,,,,,,,,,,,,,"2006-10-05"
"72509014739","2020-05-15T20:54:00","FM-15","7",,"ESE","2.6","mi","SNOW","20",,"SNOWBOARD, SNOW RULER","42.3517","-70.9606","MWRA DEER ISLAND TREATMENT PLANT",,,,,,,,,,,,,,,,,,,,,,,,,,,,"29.83","58","63","0.29","TS:7 +RA:02 |RA TS TS |RA",,,"84","29.82","FEW:02 35 BKN:07 55 OVC:08 120","29.80","4.00","60","240",,"16",,,,,,,,,,,,,,,,,,,,,,,,,,,,,,,,,,,,,"MET20105/15/20 20:54:01 METAR KBOS 160154Z 24014KT 4SM +TSRA FEW035CB BKN055 OVC120 17/14 A2983 RMK AO2 PK WND 32035/0105 WSHFT 0051 LTG DSNT E RAB04 TSB08 SLP099 OCNL LTGICCC TS OVHD MOV E P0027 T01720144 $","FM-15","7",,,,,,,,,,,,,,,,,,,,,,,,,,,"2006-10-05"
"72509014739","2020-05-15T21:06:00","FM-16","7",,"ESE","2.6","mi","SNOW","20",,"SNOWBOARD, SNOW RULER","42.3517","-70.9606","MWRA DEER ISLAND TREATMENT PLANT",,,,,,,,,,,,,,,,,,,,,,,,,,,,"29.82","59","63","0.04","RA:02 BR:1 |RA |RA",,,"87",,"SCT:04 70 OVC:08 80","29.79","6.00","61","240",,"16",,,,,,,,,,,,,,,,,,,,,,,,,,,,,,,,,,,,,"MET11205/15/20 21:06:01 SPECI KBOS 160206Z 24014KT 6SM RA BR SCT070 OVC080 17/15 A2982 RMK AO2 TSE05 P0004 T01720150 $","FM-16","7",,,,,,,,,,,,,,,,,,,,,,,,,,,"2006-10-05"
"72509014739","2020-05-15T21:54:00","FM-15","7",,"ESE","2.6","mi","SNOW","20",,"SNOWBOARD, SNOW RULER","42.3517","-70.9606","MWRA DEER ISLAND TREATMENT PLANT",,,,,,,,,,,,,,,,,,,,,,,,,,,,"29.79","60","63","0.17","RA:02 |RA |RA","-0.06","0","90","29.79","BKN:07 55 OVC:08 75","29.76","7.00","61","210",,"10",,,,,,,,,,,,,,,,,,,,,,,,,,,,,,,,,,,,,"MET13505/15/20 21:54:01 METAR KBOS 160254Z 21009KT 7SM RA BKN055 OVC075 17/16 A2979 RMK AO2 TSE05 PRESFR SLP087 P0019 60046 T01720156 50021 $","FM-15","7",,,,,,,,,,,,,,,,,,,,,,,,,,,"2006-10-05"
"72509014739","2020-05-15T22:00:00","FM-12","4",,"ESE","2.6","mi","SNOW","20",,"SNOWBOARD, SNOW RULER","42.3517","-70.9606","MWRA DEER ISLAND TREATMENT PLANT",,,,,,,,,,,,,,,,,,,,,,,,,,,,,"60","63",,"||RA","0.06","9","90","29.79","57","29.77","6.84","61","210",,"10",,,,,,,,,,,,,,,,,,,,,,,,,,,,,,,,,,,,,"SYN07672509 11761 82109 10172 20156 30080 40087 50021 60127 763// 90254 555 91603=","FM-12","4",,,,,,,,,,,,,,,,,,,,,,,,,,,"2006-10-05"
"72509014739","2020-05-15T22:54:00","FM-15","7",,"ESE","2.6","mi","SNOW","20",,"SNOWBOARD, SNOW RULER","42.3517","-70.9606","MWRA DEER ISLAND TREATMENT PLANT",,,,,,,,,,,,,,,,,,,,,,,,,,,,"29.77","61","63","0.14","+RA:02 BR:1 |RA |RA",,,"93","29.76","BKN:07 49 BKN:07 60 OVC:08 100","29.74","4.00","62","210",,"15",,,,,,,,,,,,,,,,,,,,,,,,,,,,,,,,,,,,,"MET12105/15/20 22:54:02 METAR KBOS 160354Z 21013KT 4SM +RA BR BKN049 BKN060 OVC100 17/16 A2977 RMK AO2 SLP079 P0012 T01720161 $","FM-15","7",,,,,,,,,,,,,,,,,,,,,,,,,,,"2006-10-05"
"72509014739","2020-05-15T23:54:00","FM-15","7",,"ESE","2.6","mi","SNOW","20",,"SNOWBOARD, SNOW RULER","42.3517","-70.9606","MWRA DEER ISLAND TREATMENT PLANT",,,,,,,,,,,,,,,,,,,,,,,,,,,,"29.76","61","64","0.01","-RA:02 |RA |RA",,,"90","29.75","OVC:08 110","29.73","10.00","62","230",,"14",,,,,,,,,,,,,,,,,,,,,,,,,,,,,,,,,,,,,"MET11505/15/20 23:54:02 METAR KBOS 160454Z 23012KT 10SM -RA OVC110 18/16 A2976 RMK AO2 SLP076 P0003 T01780161 402330106 $","FM-15","7",,,,,,,,,,,,,,,,,,,,,,,,,,,"2006-10-05"
"72509014739","2020-05-15T23:59:00","SOD  ","6",,"ESE","2.6","mi","SNOW","20",,"SNOWBOARD, SNOW RULER","42.3517","-70.9606","MWRA DEER ISLAND TREATMENT PLANT",,,,,,"54","63","79","29.89","29.88","57","10.9","0","5.4","2","74","51","320","40","0.67",,"0.0","310","30","TS RA BR",,,,,,,,,,,,,,,,,,,,,,,,,,,,,,,,,,,,,,,,,,,,,,,,,,,,,,,"SOD73624 HR PRECIPITATION (IN): 0.67  24 HR SNOWFALL (IN):0.0  WEATHER(CODE):13  24 HR MAX TEMP (F): 7424 HR MIN TEMP (F): 51AVERAGE STATION PRESSURE:29.875 MINIMUM SEA LEVEL PRESSURE:29.72 TIME OF OCCURRENCE:1849 PEAK WIND SPEED (MPH): 40 PEAK WIND DIR (DEG):320 PEAK WIND TIME (LST):      FASTEST 2MIN SPEED (MPH): 30FASTEST 2MIN DIR (DEG):310 FASTEST 2MIN TIME (LST):     AVERAGE WIND SPEED (MPH):10.9 24 HR AVG TEMP (F): 63DEPART FROM NORMAL:  5  HEATING DEGREE DAYS:  2 COOLING DEGREE DAYS:  0 LATEST DAY MAX TEMP (0700-1900 LST):74  LATEST NIGHT MIN TEMP(1900-0800 LST):51 HOURLY INCREMENTAL PRECIPITATION VALUES (IN):    0.04 0.01 0.01 0.00 0.00 0.00 0.00 0.00 0.00 0.00 0.00 0.00 0.00 0.00 0.00 0.00 0.00 0.00 0.00 0.29 0.17 0.14 0.01","SOD  ","6",,,,,,,,,,,,,,,,,,,,,,,,,"0422","1859","2006-10-05"
"72509014739","2020-05-16T00:54:00","FM-15","7",,"ESE","2.6","mi","SNOW","20",,"SNOWBOARD, SNOW RULER","42.3517","-70.9606","MWRA DEER ISLAND TREATMENT PLANT",,,,,,,,,,,,,,,,,,,,,,,,,,,,"29.74","61","63","0.04","-RA:02 |RA |RA","+0.05","6","93","29.74","OVC:08 110","29.71","10.00","62","220",,"14",,,,,,,,,,,,,,,,,,,,,,,,,,,,,,,,,,,,,"MET13405/16/20 00:54:02 METAR KBOS 160554Z 22012KT 10SM -RA OVC110 17/16 A2974 RMK AO2 SLP071 P0004 60065 T01720161 10217 20167 56016 $ (WL)","FM-15","7",,,,,,,,,,,,,,,,,,,,,,,,,,,"2006-10-05"
"72509014739","2020-05-16T01:00:00","FM-12","4",,"ESE","2.6","mi","SNOW","20",,"SNOWBOARD, SNOW RULER","42.3517","-70.9606","MWRA DEER ISLAND TREATMENT PLANT",,,,,,,,,,,,,,,,,,,,,,,,,,,,,"61","63",,"||RA","+0.05","6","93","29.74",,"29.72","9.94","62","220",,"14",,,,,,,,,,,,,,,,,,,,,,,,,,,,,,,,,,,,,"SYN09272509 11966 82212 10172 20161 30063 40071 56016 60171 761// 90554 333 10217 20106 555 91606=","FM-12","4",,,,,,,,,,,,,,,,,,,,,,,,,,,"2006-10-05"
"72509014739","2020-05-16T01:54:00","FM-15","7",,"ESE","2.6","mi","SNOW","20",,"SNOWBOARD, SNOW RULER","42.3517","-70.9606","MWRA DEER ISLAND TREATMENT PLANT",,,,,,,,,,,,,,,,,,,,,,,,,,,,"29.75","61","64","T",,,,"90","29.75","FEW:02 10 SCT:04 15 OVC:08 80","29.72","10.00","62","240",,"14",,,,,,,,,,,,,,,,,,,,,,,,,,,,,,,,,,,,,"MET12605/16/20 01:54:02 METAR KBOS 160654Z 24012KT 10SM FEW010 SCT015 OVC080 18/16 A2975 RMK AO2 RAE26 SLP073 P0000 T01780161 $ (WL)","FM-15","7",,,,,,,,,,,,,,,,,,,,,,,,,,,"2006-10-05"
"72509014739","2020-05-16T02:54:00","FM-15","7",,"ESE","2.6","mi","SNOW","20",,"SNOWBOARD, SNOW RULER","42.3517","-70.9606","MWRA DEER ISLAND TREATMENT PLANT",,,,,,,,,,,,,,,,,,,,,,,,,,,,"29.79","60","65","0.00",,,,"84","29.78","SCT:04 25 SCT:04 32 OVC:08 90","29.76","10.00","62","300","30","17",,,,,,,,,,,,,,,,,,,,,,,,,,,,,,,,,,,,,"MET14205/16/20 02:54:02 METAR KBOS 160754Z 30015G26KT 10SM SCT025 SCT032 OVC090 18/16 A2979 RMK AO2 PK WND 29026/0750 PRESRR SLP086 T01830156 $ (WL)","FM-15","7",,,,,,,,,,,,,,,,,,,,,,,,,,,"2006-10-05"
"72509014739","2020-05-16T03:54:00","FM-15","7",,"ESE","2.6","mi","SNOW","20",,"SNOWBOARD, SNOW RULER","42.3517","-70.9606","MWRA DEER ISLAND TREATMENT PLANT",,,,,,,,,,,,,,,,,,,,,,,,,,,,"29.81","58","62","0.00",,"-0.06","3","86","29.81","BKN:07 60 BKN:07 150 OVC:08 220","29.78","10.00","60","290",,"10",,,,,,,,,,,,,,,,,,,,,,,,,,,,,,,,,,,,,"MET12605/16/20 03:54:02 METAR KBOS 160854Z 29009KT 10SM BKN060 BKN150 OVC220 17/14 A2981 RMK AO2 SLP094 60000 T01670144 53022 $ (WL)","FM-15","7",,,,,,,,,,,,,,,,,,,,,,,,,,,"2006-10-05"
"72509014739","2020-05-16T04:00:00","FM-12","4",,"ESE","2.6","mi","SNOW","20",,"SNOWBOARD, SNOW RULER","42.3517","-70.9606","MWRA DEER ISLAND TREATMENT PLANT",,,,,,,,,,,,,,,,,,,,,,,,,,,,,"58","62",,,"-0.06","3","86","29.81","57","29.79","9.94","60","290",,"10",,,,,,,,,,,,,,,,,,,,,,,,,,,,,,,,,,,,,"SYN07072509 12766 82909 10167 20144 30087 40094 53022 69907 90854 555 91609=","FM-12","4",,,,,,,,,,,,,,,,,,,,,,,,,,,"2006-10-05"
"72509014739","2020-05-16T04:54:00","FM-15","7",,"ESE","2.6","mi","SNOW","20",,"SNOWBOARD, SNOW RULER","42.3517","-70.9606","MWRA DEER ISLAND TREATMENT PLANT",,,,,,,,,,,,,,,,,,,,,,,,,,,,"29.86","55","61","0.00",,,,"81","29.85","FEW:02 25 SCT:04 70 BKN:07 150","29.83","10.00","58","310",,"11",,,,,,,,,,,,,,,,,,,,,,,,,,,,,,,,,,,,,"MET11405/16/20 04:54:02 METAR KBOS 160954Z 31010KT 10SM FEW025 SCT070 BKN150 16/13 A2986 RMK AO2 SLP109 T01610128 $ (WL)","FM-15","7",,,,,,,,,,,,,,,,,,,,,,,,,,,"2006-10-05"
"72509014739","2020-05-16T05:54:00","FM-15","7",,"ESE","2.6","mi","SNOW","20",,"SNOWBOARD, SNOW RULER","42.3517","-70.9606","MWRA DEER ISLAND TREATMENT PLANT",,,,,,,,,,,,,,,,,,,,,,,,,,,,"29.90","52","61","0.00",,,,"72","29.90","FEW:02 25 FEW:02 70 SCT:04 150","29.87","10.00","56","310",,"11",,,,,,,,,,,,,,,,,,,,,,,,,,,,,,,,,,,,,"MET11405/16/20 05:54:02 METAR KBOS 161054Z 31010KT 10SM FEW025 FEW070 SCT150 16/11 A2990 RMK AO2 SLP124 T01610111 $ (WL)","FM-15","7",,,,,,,,,,,,,,,,,,,,,,,,,,,"2006-10-05"
"72509014739","2020-05-16T06:54:00","FM-15","7",,"ESE","2.6","mi","SNOW","20",,"SNOWBOARD, SNOW RULER","42.3517","-70.9606","MWRA DEER ISLAND TREATMENT PLANT",,,,,,,,,,,,,,,,,,,,,,,,,,,,"29.93","49","61","0.00",,"-0.12","1","65","29.93","FEW:02 25 FEW:02 100 SCT:04 250","29.90","10.00","55","320","29","22",,,,,,,,,,,,,,,,,,,,,,,,,,,,,,,,,,,,,"MET16505/16/20 06:54:02 METAR KBOS 161154Z 32019G25KT 10SM FEW025 FEW100 SCT250 16/09 A2993 RMK AO2 PK WND 32027/1140 SLP134 60000 70065 T01610094 10183 20156 51040 $ (WL)","FM-15","7",,,,,,,,,,,,,,,,,,,,,,,,,,,"2006-10-05"
"72509014739","2020-05-16T07:00:00","FM-12","4",,"ESE","2.6","mi","SNOW","20",,"SNOWBOARD, SNOW RULER","42.3517","-70.9606","MWRA DEER ISLAND TREATMENT PLANT",,,,,,,,,,,,,,,,,,,,,,,,,,,,,"49","61",,,"-0.12","1","65","29.93","26","29.91","9.94","55","320",,"22",,,,,,,,,,,,,,,,,,,,,,,,,,,,,,,,,,,,,"SYN09872509 12566 43219 10161 20094 30128 40134 51040 69901 91154 333 10233 20156 70165 91025 555 91612=","FM-12","4",,,,,,,,,,,,,,,,,,,,,,,,,,,"2006-10-05"
"72509014739","2020-05-16T07:54:00","FM-15","7",,"ESE","2.6","mi","SNOW","20",,"SNOWBOARD, SNOW RULER","42.3517","-70.9606","MWRA DEER ISLAND TREATMENT PLANT",,,,,,,,,,,,,,,,,,,,,,,,,,,,"29.96","47","62","0.00",,,,"58","29.96","FEW:02 25 FEW:02 100 SCT:04 250","29.93","10.00","54","320","29","17",,,,,,,,,,,,,,,,,,,,,,,,,,,,,,,,,,,,,"MET13505/16/20 07:54:02 METAR KBOS 161254Z 32015G25KT 10SM FEW025 FEW100 SCT250 17/08 A2996 RMK AO2 PK WND 32030/1155 SLP146 T01670083 $ (FA)","FM-15","7",,,,,,,,,,,,,,,,,,,,,,,,,,,"2006-10-05"
"72509014739","2020-05-16T08:54:00","FM-15","7",,"ESE","2.6","mi","SNOW","20",,"SNOWBOARD, SNOW RULER","42.3517","-70.9606","MWRA DEER ISLAND TREATMENT PLANT",,,,,,,,,,,,,,,,,,,,,,,,,,,,"29.98","46","64","0.00",,,,"52","29.97","SCT:04 38 SCT:04 250","29.95","10.00","54","300","30","20",,,,,,,,,,,,,,,,,,,,,,,,,,,,,,,,,,,,,"MET12805/16/20 08:54:02 METAR KBOS 161354Z 30017G26KT 10SM SCT038 SCT250 18/08 A2998 RMK AO2 PK WND 30026/1353 SLP150 T01780078 $ (FA)","FM-15","7",,,,,,,,,,,,,,,,,,,,,,,,,,,"2006-10-05"
"72509014739","2020-05-16T09:54:00","FM-15","7",,"ESE","2.6","mi","SNOW","20",,"SNOWBOARD, SNOW RULER","42.3517","-70.9606","MWRA DEER ISLAND TREATMENT PLANT",,,,,,,,,,,,,,,,,,,,,,,,,,,,"30.00","46","67","0.00",,"-0.07","1","47","30.00","FEW:02 35 SCT:04 45 BKN:07 250","29.97","10.00","56","310","26","20",,,,,,,,,,,,,,,,,,,,,,,,,,,,,,,,,,,,,"MET14105/16/20 09:54:02 METAR KBOS 161454Z 31017G23KT 10SM FEW035 SCT045 BKN250 19/08 A3000 RMK AO2 PK WND 33028/1412 SLP158 T01940078 51025 $ (FA)","FM-15","7",,,,,,,,,,,,,,,,,,,,,,,,,,,"2006-10-05"
"72509014739","2020-05-16T10:00:00","FM-12","4",,"ESE","2.6","mi","SNOW","20",,"SNOWBOARD, SNOW RULER","42.3517","-70.9606","MWRA DEER ISLAND TREATMENT PLANT",,,,,,,,,,,,,,,,,,,,,,,,,,,,,"46","67",,,"-0.07","1","47","30.00","41","29.98","9.94","56","310",,"20",,,,,,,,,,,,,,,,,,,,,,,,,,,,,,,,,,,,,"SYN07472509 32666 63117 10194 20078 30151 40158 51025 91454 333 91023 555 91615=","FM-12","4",,,,,,,,,,,,,,,,,,,,,,,,,,,"2006-10-05"
"72509014739","2020-05-16T10:54:00","FM-15","7",,"ESE","2.6","mi","SNOW","20",,"SNOWBOARD, SNOW RULER","42.3517","-70.9606","MWRA DEER ISLAND TREATMENT PLANT",,,,,,,,,,,,,,,,,,,,,,,,,,,,"30.02","45","67","0.00",,,,"45","30.02","SCT:04 48","29.99","10.00","55","310","26","18",,,,,,,,,,,,,,,,,,,,,,,,,,,,,,,,,,,,,"MET12105/16/20 10:54:02 METAR KBOS 161554Z 31016G23KT 10SM SCT048 19/07 A3002 RMK AO2 PK WND 33026/1458 SLP166 T01940072 $ (FA)","FM-15","7",,,,,,,,,,,,,,,,,,,,,,,,,,,"2006-10-05"
"72509014739","2020-05-16T11:54:00","FM-15","7",,"ESE","2.6","mi","SNOW","20",,"SNOWBOARD, SNOW RULER","42.3517","-70.9606","MWRA DEER ISLAND TREATMENT PLANT",,,,,,,,,,,,,,,,,,,,,,,,,,,,"30.04","46","68","0.00",,,,"45","30.04","SCT:04 45 SCT:04 250","30.01","10.00","56","330","23","15",,,,,,,,,,,,,,,,,,,,,,,,,,,,,,,,,,,,,"MET11005/16/20 11:54:02 METAR KBOS 161654Z 33013G20KT 10SM SCT045 SCT250 20/08 A3004 RMK AO2 SLP172 T02000078 $ (FA)","FM-15","7",,,,,,,,,,,,,,,,,,,,,,,,,,,"2006-10-05"
"72509014739","2020-05-16T12:54:00","FM-15","7",,"ESE","2.6","mi","SNOW","20",,"SNOWBOARD, SNOW RULER","42.3517","-70.9606","MWRA DEER ISLAND TREATMENT PLANT",,,,,,,,,,,,,,,,,,,,,,,,,,,,"30.06","46","67","0.00",,"-0.06","1","47","30.06","BKN:07 48 BKN:07 250","30.03","10.00","56","330","24","15",,,,,,,,,,,,,,,,,,,,,,,,,,,,,,,,,,,,,"MET12905/16/20 12:54:02 METAR KBOS 161754Z 33013G21KT 10SM BKN048 BKN250 19/08 A3006 RMK AO2 SLP179 T01940078 10200 20161 51021 $ (ETM)","FM-15","7",,,,,,,,,,,,,,,,,,,,,,,,,,,"2006-10-05"
"72509014739","2020-05-16T13:00:00","FM-12","4",,"ESE","2.6","mi","SNOW","20",,"SNOWBOARD, SNOW RULER","42.3517","-70.9606","MWRA DEER ISLAND TREATMENT PLANT",,,,,,,,,,,,,,,,,,,,,,,,,,,,,"46","67",,,"-0.06","1","47","30.06","41","30.04","9.94","56","330",,"15",,,,,,,,,,,,,,,,,,,,,,,,,,,,,,,,,,,,,"SYN08672509 32666 63313 10194 20078 30172 40179 51021 91754 333 10200 20161 91021 555 91618=","FM-12","4",,,,,,,,,,,,,,,,,,,,,,,,,,,"2006-10-05"
"72509014739","2020-05-16T13:54:00","FM-15","7",,"ESE","2.6","mi","SNOW","20",,"SNOWBOARD, SNOW RULER","42.3517","-70.9606","MWRA DEER ISLAND TREATMENT PLANT",,,,,,,,,,,,,,,,,,,,,,,,,,,,"30.08","44","67","0.00",,,,"44","30.08","BKN:07 50 BKN:07 250","30.05","10.00","55","340","22","11",,,,,,,,,,,,,,,,,,,,,,,,,,,,,,,,,,,,,"MET11105/16/20 13:54:02 METAR KBOS 161854Z 34010G19KT 10SM BKN050 BKN250 19/07 A3008 RMK AO2 SLP186 T01940067 $ (ETM)","FM-15","7",,,,,,,,,,,,,,,,,,,,,,,,,,,"2006-10-05"
"72509014739","2020-05-16T14:16:00","FM-16","7",,"ESE","2.6","mi","SNOW","20",,"SNOWBOARD, SNOW RULER","42.3517","-70.9606","MWRA DEER ISLAND TREATMENT PLANT",,,,,,,,,,,,,,,,,,,,,,,,,,,,"30.10","47","59",,,,,"64",,"BKN:07 50 BKN:07 250","30.07","10.00","53","080",,"16",,,,,,,,,,,,,,,,,,,,,,,,,,,,,,,,,,,,,"MET11205/16/20 14:16:02 SPECI KBOS 161916Z 08014KT 10SM BKN050 BKN250 15/08 A3010 RMK AO2 WSHFT 1856 T01500083 $ (ETM)","FM-16","7",,,,,,,,,,,,,,,,,,,,,,,,,,,"2006-10-05"
"72509014739","2020-05-16T14:54:00","FM-15","7",,"ESE","2.6","mi","SNOW","20",,"SNOWBOARD, SNOW RULER","42.3517","-70.9606","MWRA DEER ISLAND TREATMENT PLANT",,,,,,,,,,,,,,,,,,,,,,,,,,,,"30.12","47","57","0.00",,,,"69","30.11","BKN:07 55 BKN:07 250","30.09","10.00","52","100",,"18",,,,,,,,,,,,,,,,,,,,,,,,,,,,,,,,,,,,,"MET11905/16/20 14:54:02 METAR KBOS 161954Z 10016KT 10SM BKN055 BKN250 14/08 A3012 RMK AO2 WSHFT 1856 SLP198 T01390083 $ (ETM)","FM-15","7",,,,,,,,,,,,,,,,,,,,,,,,,,,"2006-10-05"
"72509014739","2020-05-16T15:54:00","FM-15","7",,"ESE","2.6","mi","SNOW","20",,"SNOWBOARD, SNOW RULER","42.3517","-70.9606","MWRA DEER ISLAND TREATMENT PLANT",,,,,,,,,,,,,,,,,,,,,,,,,,,,"30.16","47","56","0.00",,"-0.09","3","72","30.15","BKN:07 60 BKN:07 250","30.13","10.00","51","120",,"14",,,,,,,,,,,,,,,,,,,,,,,,,,,,,,,,,,,,,"MET11405/16/20 15:54:02 METAR KBOS 162054Z 12012KT 10SM BKN060 BKN250 13/08 A3016 RMK AO2 SLP211 T01330083 53032 $ (ETM)","FM-15","7",,,,,,,,,,,,,,,,,,,,,,,,,,,"2006-10-05"
"72509014739","2020-05-16T16:00:00","FM-12","4",,"ESE","2.6","mi","SNOW","20",,"SNOWBOARD, SNOW RULER","42.3517","-70.9606","MWRA DEER ISLAND TREATMENT PLANT",,,,,,,,,,,,,,,,,,,,,,,,,,,,,"47","56",,,"-0.09","3","72","30.15","57","30.14","9.94","51","120",,"14",,,,,,,,,,,,,,,,,,,,,,,,,,,,,,,,,,,,,"SYN06472509 32766 61212 10133 20083 30206 40211 53032 92054 555 91621=","FM-12","4",,,,,,,,,,,,,,,,,,,,,,,,,,,"2006-10-05"
"72509014739","2020-05-16T16:54:00","FM-15","7",,"ESE","2.6","mi","SNOW","20",,"SNOWBOARD, SNOW RULER","42.3517","-70.9606","MWRA DEER ISLAND TREATMENT PLANT",,,,,,,,,,,,,,,,,,,,,,,,,,,,"30.18","43","53","0.00",,,,"69","30.18","SCT:04 60 SCT:04 250","30.15","10.00","48","110",,"13",,,,,,,,,,,,,,,,,,,,,,,,,,,,,,,,,,,,,"MET10805/16/20 16:54:02 METAR KBOS 162154Z 11011KT 10SM SCT060 SCT250 12/06 A3018 RMK AO2 SLP220 T01170061 $ (ETM)","FM-15","7",,,,,,,,,,,,,,,,,,,,,,,,,,,"2006-10-05"
"72509014739","2020-05-16T17:54:00","FM-15","7",,"ESE","2.6","mi","SNOW","20",,"SNOWBOARD, SNOW RULER","42.3517","-70.9606","MWRA DEER ISLAND TREATMENT PLANT",,,,,,,,,,,,,,,,,,,,,,,,,,,,"30.19","43","52","0.00",,,,"72","30.19","BKN:07 60 BKN:07 250","30.16","10.00","48","110",,"13",,,,,,,,,,,,,,,,,,,,,,,,,,,,,,,,,,,,,"MET10805/16/20 17:54:02 METAR KBOS 162254Z 11011KT 10SM BKN060 BKN250 11/06 A3019 RMK AO2 SLP223 T01110061 $ (ETM)","FM-15","7",,,,,,,,,,,,,,,,,,,,,,,,,,,"2006-10-05"
"72509014739","2020-05-16T18:54:00","FM-15","7",,"ESE","2.6","mi","SNOW","20",,"SNOWBOARD, SNOW RULER","42.3517","-70.9606","MWRA DEER ISLAND TREATMENT PLANT",,,,,,,,,,,,,,,,,,,,,,,,,,,,"30.21","43","51","0.00",,"-0.06","1","74","30.21","BKN:07 60","30.18","10.00","47","100",,"13",,,,,,,,,,,,,,,,,,,,,,,,,,,,,,,,,,,,,"MET11905/16/20 18:54:02 METAR KBOS 162354Z 10011KT 10SM BKN060 11/06 A3021 RMK AO2 SLP231 T01060061 10200 20106 51020 $ (ETM)","FM-15","7",,,,,,,,,,,,,,,,,,,,,,,,,,,"2006-10-05"
"72509014739","2020-05-16T19:00:00","FM-12","4",,"ESE","2.6","mi","SNOW","20",,"SNOWBOARD, SNOW RULER","42.3517","-70.9606","MWRA DEER ISLAND TREATMENT PLANT",,,,,,,,,,,,,,,,,,,,,,,,,,,,,"43","51",,,"-0.06","1","74","30.21","57","30.19","9.94","47","100",,"13",,,,,,,,,,,,,,,,,,,,,,,,,,,,,,,,,,,,,"SYN08072509 32766 61011 10106 20061 30223 40231 51020 92354 333 10200 20106 555 91700=","FM-12","4",,,,,,,,,,,,,,,,,,,,,,,,,,,"2006-10-05"
"72509014739","2020-05-16T19:54:00","FM-15","7",,"ESE","2.6","mi","SNOW","20",,"SNOWBOARD, SNOW RULER","42.3517","-70.9606","MWRA DEER ISLAND TREATMENT PLANT",,,,,,,,,,,,,,,,,,,,,,,,,,,,"30.23","44","50","0.00",,,,"80","30.23","SCT:04 60","30.20","10.00","47","120",,"7",,,,,,,,,,,,,,,,,,,,,,,,,,,,,,,,,,,,,"MET09505/16/20 19:54:01 METAR KBOS 170054Z 12006KT 10SM SCT060 10/07 A3023 RMK AO2 SLP238 T01000067 $","FM-15","7",,,,,,,,,,,,,,,,,,,,,,,,,,,"2006-10-05"
"72509014739","2020-05-16T20:54:00","FM-15","7",,"ESE","2.6","mi","SNOW","20",,"SNOWBOARD, SNOW RULER","42.3517","-70.9606","MWRA DEER ISLAND TREATMENT PLANT",,,,,,,,,,,,,,,,,,,,,,,,,,,,"30.27","43","50","0.00",,,,"77","30.27","FEW:02 60","30.24","10.00","47","140",,"6",,,,,,,,,,,,,,,,,,,,,,,,,,,,,,,,,,,,,"MET09505/16/20 20:54:01 METAR KBOS 170154Z 14005KT 10SM FEW060 10/06 A3027 RMK AO2 SLP250 T01000061 $","FM-15","7",,,,,,,,,,,,,,,,,,,,,,,,,,,"2006-10-05"
"72509014739","2020-05-16T21:54:00","FM-15","7",,"ESE","2.6","mi","SNOW","20",,"SNOWBOARD, SNOW RULER","42.3517","-70.9606","MWRA DEER ISLAND TREATMENT PLANT",,,,,,,,,,,,,,,,,,,,,,,,,,,,"30.27","43","49","0.00",,"-0.05","0","80","30.27","FEW:02 60","30.24","10.00","46","180",,"5",,,,,,,,,,,,,,,,,,,,,,,,,,,,,,,,,,,,,"MET10105/16/20 21:54:01 METAR KBOS 170254Z 18004KT 10SM FEW060 09/06 A3027 RMK AO2 SLP249 T00940061 50018 $","FM-15","7",,,,,,,,,,,,,,,,,,,,,,,,,,,"2006-10-05"
"72509014739","2020-05-16T22:00:00","FM-12","4",,"ESE","2.6","mi","SNOW","20",,"SNOWBOARD, SNOW RULER","42.3517","-70.9606","MWRA DEER ISLAND TREATMENT PLANT",,,,,,,,,,,,,,,,,,,,,,,,,,,,,"43","49",,,"0.05","9","80","30.27","57","30.25","9.94","46","180",,"5",,,,,,,,,,,,,,,,,,,,,,,,,,,,,,,,,,,,,"SYN06472509 32766 21804 10094 20061 30243 40249 50018 90254 555 91703=","FM-12","4",,,,,,,,,,,,,,,,,,,,,,,,,,,"2006-10-05"
"72509014739","2020-05-16T22:54:00","FM-15","7",,"ESE","2.6","mi","SNOW","20",,"SNOWBOARD, SNOW RULER","42.3517","-70.9606","MWRA DEER ISLAND TREATMENT PLANT",,,,,,,,,,,,,,,,,,,,,,,,,,,,"30.27","43","50","0.00",,,,"77","30.27","FEW:02 60 FEW:02 250","30.24","10.00","47","000",,"0",,,,,,,,,,,,,,,,,,,,,,,,,,,,,,,,,,,,,"MET10205/16/20 22:54:02 METAR KBOS 170354Z 00000KT 10SM FEW060 FEW250 10/06 A3027 RMK AO2 SLP249 T01000061 $","FM-15","7",,,,,,,,,,,,,,,,,,,,,,,,,,,"2006-10-05"
"72509014739","2020-05-16T23:54:00","FM-15","7",,"ESE","2.6","mi","SNOW","20",,"SNOWBOARD, SNOW RULER","42.3517","-70.9606","MWRA DEER ISLAND TREATMENT PLANT",,,,,,,,,,,,,,,,,,,,,,,,,,,,"30.28","43","50","0.00",,,,"77","30.28","BKN:07 70","30.25","10.00","47","210",,"6",,,,,,,,,,,,,,,,,,,,,,,,,,,,,,,,,,,,,"MET10505/16/20 23:54:02 METAR KBOS 170454Z 21005KT 10SM BKN070 10/06 A3028 RMK A02 SLP254 T01000061 402000094 $","FM-15","7",,,,,,,,,,,,,,,,,,,,,,,,,,,"2006-10-05"
"72509014739","2020-05-16T23:59:00","SOD  ","6",,"ESE","2.6","mi","SNOW","20",,"SNOWBOARD, SNOW RULER","42.3517","-70.9606","MWRA DEER ISLAND TREATMENT PLANT",,,,,,"48","59","68","30.04","29.95","53","12.9","0","1.1","6","68","49","320","34","0.04",,"0.0","330","24","RA",,,,,,,,,,,,,,,,,,,,,,,,,,,,,,,,,,,,,,,,,,,,,,,,,,,,,,,"SOD71824 HR PRECIPITATION (IN): 0.04  24 HR SNOWFALL (IN):0.0  24 HR MAX TEMP (F): 6824 HR MIN TEMP (F): 49AVERAGE STATION PRESSURE:29.950 MINIMUM SEA LEVEL PRESSURE:29.73 TIME OF OCCURRENCE:0134 PEAK WIND SPEED (MPH): 34 PEAK WIND DIR (DEG):320 PEAK WIND TIME (LST):      FASTEST 2MIN SPEED (MPH): 24FASTEST 2MIN DIR (DEG):330 FASTEST 2MIN TIME (LST):     AVERAGE WIND SPEED (MPH):12.9 24 HR AVG TEMP (F): 59DEPART FROM NORMAL:  1  HEATING DEGREE DAYS:  6 COOLING DEGREE DAYS:  0 LATEST DAY MAX TEMP (0700-1900 LST):68  LATEST NIGHT MIN TEMP(1900-0800 LST):60 HOURLY INCREMENTAL PRECIPITATION VALUES (IN):.04 T    0.00 0.00 0.00 0.00 0.00 0.00 0.00 0.00 0.00 0.00 0.00 0.00 0.00 0.00 0.00 0.00 0.00 0.00 0.00 0.00 0.00 0.00","SOD  ","6",,,,,,,,,,,,,,,,,,,,,,,,,"0421","1901","2006-10-05"
